Name,Instagram,Confidence,Method,Notes,GooglePlaceID,Latitude,Longitude,Address,Neighborhood,Phone,Website
88 pocha,88pocha,medium,ai,Korean drinking establishment chain,ChIJy_EHD461woARqGpoPsbyPsg,33.8886803,-118.3042648,"1610 W Redondo Beach Blvd #3, Gardena, CA 90247, USA",Gardena,(310) 768-8282,
888 Seafood Restaurant,888seafoodrestaurant,medium,ai,Chinese seafood restaurant,ChIJVca3ayfbwoARvTN4LEHGTxs,34.0799853,-118.0850167,"8450 E Valley Blvd, Rosemead, CA 91770, USA",Rosemead,(626) 573-1888,https://888seafoodrestaurant.com/
Abbot's Pizza Company,abbotspizza,high,ai,Well-known LA pizza chain,ChIJcaqDn7-6woARNn2eauKOKSc,33.9908125,-118.4655792,"1407 Abbot Kinney Blvd, Venice, CA 90291, USA",Venice,(310) 396-7334,http://www.abbotspizzaco.com/
Ackee Bamboo Jamaican Cuisine,ackeebamboo,medium,ai,Jamaican restaurant in LA,ChIJO4T2nCe4woAR0BRcELOWHt8,34.0361482,-118.3892216,"2835 S Robertson Blvd, Los Angeles, CA 90034, USA",Beverlywood,(310) 730-6148,http://www.ackeebamboo.com/
Agnes Restaurant & Cheesery,agnesrestaurant,medium,ai,Popular Pasadena restaurant,ChIJHX5Is3zDwoAR-tMO5OyIYZY,34.1442966,-118.151331,"40 W Green St, Pasadena, CA 91105, USA",South Arroyo,(626) 389-3839,https://www.agnesla.com/
Al & Bea's Mexican Food,alandbeas,medium,ai,Historic Mexican food establishment,ChIJmTx7eg_GwoARCLmjG4eA23A,34.0452073,-118.2140903,"2025 1st St, Los Angeles, CA 90033, USA",Central LA,(323) 267-8810,http://www.alandbeas.com/
AMMATOLI,ammatoli,medium,ai,Matches restaurant name and Long Beach location,ChIJSQHTE_sx3YARa1aBnTULuGE,33.7706935,-118.1897,"285 E 3rd St, Long Beach, CA 90802, USA",Downtown Core,(562) 435-0808,http://www.ammatoli.com/
Amour Weho,amourweho,high,ai,Clear match with WeHo branding,ChIJz-CCE6-_woARvS6Uz_1UgyA,34.07712,-118.381075,"8715 Beverly Blvd, West Hollywood, CA 90048, USA",Central LA,(424) 431-6717,https://amourweho.love/
Angry Egret Dinette,angryegretdinette,high,ai,Established downtown LA restaurant,ChIJ9z196HbHwoARPqdTjGQJ-4Y,34.0660812,-118.2358456,"970 N Broadway STE 114, Los Angeles, CA 90012, USA",Central LA,(213) 278-0987,http://angryegretdinette.com/
Atlantic Seafood and Dim Sum,atlanticseafooddimsum,medium,ai,Likely handle for Monterey Park location,ChIJQ8DLvEPFwoARd5wfbRi1UEg,34.0694168,-118.1336572,"500 N Atlantic Blvd suite 200, Monterey Park, CA 91754, USA",Monterey Park,(626) 872-0388,https://atlanticseafooddimsum.shop/
Au Fauna,aufauna,medium,ai,Matches restaurant name in Pasadena,ChIJHzYR2G7DwoARSjGzmwr9XUA,34.1457273,-118.1233562,"1308 E Colorado Blvd #4051, Pasadena, CA 91106, USA",Pasadena,,https://www.aufauna.com/
baby battista,babybattista,high,ai,Matches restaurant name pattern,ChIJzwlguwjBwoARR62_slYIMl4,34.1165044,-118.2630091,"3111 Glendale Blvd #2, Los Angeles, CA 90039, USA",Northeast Los Angeles,(323) 662-5556,https://nicosla.com/
Baja Cantina,bajacantina,medium,ai,Chain restaurant likely uses brand name,ChIJBym2lKK6woARa6L3E6wYRaY,33.9807676,-118.4645798,"311 Washington Blvd, Marina Del Rey, CA 90292, USA",Venice,(310) 821-2252,https://bajacantina.com/?utm_source=google&utm_medium=local&utm_campaign=gbp
Betsy,betsyaltadena,medium,ai,Likely uses location modifier,ChIJyROYYDXDwoARx_7TxDXZi6Q,34.1881455,-118.1316748,"875 E Mariposa St, Altadena, CA 91001, USA",Altadena,,https://betsyaltadena.com/
Bicyclette,bicyclettela,medium,ai,Common LA restaurant handle pattern,ChIJu5Y0uG67woARvE5Nmmmtv_0,34.055444,-118.3976346,"9575 W Pico Blvd, Los Angeles, CA 90035, USA",Pico-Robertson,(424) 500-9575,https://bicyclettela.com/
BiergartenLA - Koreatown,biergartenla,high,ai,Matches business name exactly,ChIJTadY5KK4woARkfH2Cf-o6Kc,34.0748411,-118.3088919,"206 N Western Ave, Los Angeles, CA 90004, USA",Koreatown,(323) 466-4860,https://biergartenla.com/
Billionaire Burger Boyz,billionaireburgerboyz,medium,ai,Likely matches business name pattern,ChIJ7_zXz6zLwoARqPUCbSpnAq4,34.0595841,-118.2399281,"635 N Broadway, Los Angeles, CA 90012, USA",Central LA,,http://www.billionaireburgerboyz.com/
Bon Temps,bontempsla,medium,ai,Common LA restaurant naming pattern,ChIJi-MAKFjHwoARol5fmX26Xdo,34.0339601,-118.2296678,"712 S Santa Fe Ave, Los Angeles, CA 90021, USA",Downtown Los Angeles,(213) 784-0044,
Bridgetown Roti,bridgetownroti,medium,ai,Matches business name pattern,ChIJne7Az-rHwoARQhCf1NoVpsY,34.0870006,-118.29152,"858 N Vermont Ave, Los Angeles, CA 90029, USA",East Hollywood,(747) 221-9026,http://www.bridgetownroti.com/
Broad Street Oyster Company,broadstreetoyster,medium,ai,Likely matches business name,ChIJA6M_-57HwoAR7WCXivxedIg,34.051052,-118.2493274,"317 S Broadway, Los Angeles, CA 90013, USA",Downtown Los Angeles,,http://www.broadstreetoyster.com/
Broken Spanish Comedor,brokenspanishcomedor,medium,ai,Part of Broken Spanish restaurant group,ChIJT5qhfGq7woARIoAJkiUAYAI,33.9970418,-118.4322833,"12565 Washington Blvd, Los Angeles, CA 90066, USA",Culver - West,(747) 946-7118,https://www.brokenspanishcomedor.com/
Broome St. General Store,broomestgeneral,medium,ai,Abbreviated version of business name,ChIJd_gMmc7AwoAR7nTNIiedNq8,34.1082215,-118.2685416,"2912 Rowena Ave, Los Angeles, CA 90039, USA",Silver Lake,(323) 570-0405,http://www.broomestgeneral.com/
5th Street,5thstreet,medium,pattern,Pattern-based (needs verification),ChIJtXNObTrGwoARYcpIBbkUuvw,34.0475207,-118.2498395,"5th St, Los Angeles, CA, USA",Central LA,,
A&J seafood shack,ajseafoodshack,medium,pattern,Pattern-based (needs verification),ChIJfc93S_sx3YARMFMzqKUVQ5s,33.7827341,-118.1544652,"3201 E Anaheim St, Long Beach, CA 90804, USA",Eastside,(562) 386-2000,http://ajseafoodshack.com/
Al-Noor Indian Pakistani Halal,alnoorindianpakistanihalal,medium,pattern,Pattern-based (needs verification),ChIJAQwReke0woARYAIAJsMoI-g,33.894194,-118.360963,"15112 S Inglewood Ave, Lawndale, CA 90260, USA",Lawndale,(310) 675-4700,http://www.alnoor-restaurant.net/
Alan Wong's Honolulu,alanwongshonolulu,medium,pattern,Pattern-based (needs verification),ChIJd6nRF5NtAHwRpwT4MbZic1c,21.2951573,-157.831757,"1857 S King St, Honolulu, HI 96826, USA",McCully - Moiliili,(808) 949-2526,https://www.alanwongs.com/
Annette Street,annettestreet,medium,pattern,Pattern-based (needs verification),ChIJ6ZgTV7fGwoARNdB3DYX-CYA,34.1037577,-118.2241161,"Annette St, Los Angeles, CA 90065, USA",Mount Washington,,
As de Guia Gastrofonda,asdeguiagastrofonda,medium,pattern,Pattern-based (needs verification),ChIJ8-FrzdST2IAReOO3epZ7QKU,31.8675042,-116.6268415,"calle 4 numero 341, entre Ruiz y, Av. √Ålvaro Obreg√≥n, Zona Centro, 22800 Ensenada, B.C., Mexico",Zona Centro,646 206 7226,
Aunty Maile's Hawaiian Restaurant,auntymaileshawaiian,medium,pattern,Pattern-based (needs verification),ChIJI-IfThnLwoAReCE-R9Y3Rdw,33.8566492,-118.2986993,"19106 Normandie Ave Ste 2, Torrance, CA 90502, USA",Harbor,(310) 819-8314,https://auntymailes808.com/
Azay,azay,medium,pattern,Pattern-based (needs verification),ChIJUYrvvHDHwoARB1japW6bsvo,34.0508303,-118.2418248,"226 1st St, Los Angeles, CA 90012, USA",Downtown Los Angeles,(213) 628-3431,http://www.azaylittletokyo.com/
1200 Rosecrans Ave #101,,manual_review,none,Could not find handle automatically,ChIJWxHnpvizwoAR3cVIiAUBFbk,33.9016333,-118.3931357,"1200 Rosecrans Ave #101, Manhattan Beach, CA 90266, USA",Manhattan Beach,,
12249 Venice Blvd.,,manual_review,none,Could not find handle automatically,ChIJH1oLbVy6woARmKoEisoy-ao,34.004684,-118.4322145,"12249 Venice Blvd., Los Angeles, CA 90066, USA",Mar Vista,,
1642,,manual_review,none,Could not find handle automatically,ChIJtfpJdgbHwoARMPA3laMKsAI,34.068251,-118.2623667,"1642 W Temple St, Los Angeles, CA 90026, USA",Westlake,(213) 989-6836,https://www.1642bar.com/
1850 Academy Rd,,manual_review,none,Could not find handle automatically,EisxODUwIEFjYWRlbXkgUmQsIExvcyBBbmdlbGVzLCBDQSA5MDAxMiwgVVNBIjESLwoUChIJ7f2w2OTGwoARbQuZneCHIXcQug4qFAoSCSn2YFnlxsKAEflWfACFCVhC,34.0789992,-118.2439823,"1850 Academy Rd, Los Angeles, CA 90012, USA",Elysian Park,,
2425 Daly St,,manual_review,none,Could not find handle automatically,ChIJ3Uy9Zn3GwoAR1S0GNCqzN3Y,34.0745015,-118.2157934,"2425 Daly St, Los Angeles, CA 90031, USA",Lincoln Heights,,
2633 E Cesar E Chavez Ave,,manual_review,none,Could not find handle automatically,ChIJh_9_FP3FwoARxXM2voNmsxw,34.0454071,-118.2042116,"2633 E Cesar E Chavez Ave, Los Angeles, CA 90033, USA",Central LA,,
3214 Glendale Blvd,,manual_review,none,Could not find handle automatically,ChIJG0M8stvAwoARQ3pnsmVuaVs,34.1177795,-118.2606249,"3214 Glendale Blvd, Los Angeles, CA 90039, USA",Northeast Los Angeles,,
3250 W Olympic Blvd,,manual_review,none,Could not find handle automatically,ChIJdW3Og4e4woAR5D8mKi4vyUs,34.0522795,-118.3083861,"3250 W Olympic Blvd, Los Angeles, CA 90006, USA",Central LA,,
5150 Hollywood Blvd,,manual_review,none,Could not find handle automatically,ChIJO5-D_Fa_woAR9lhITdRE2bw,34.1015809,-118.3023957,"5150 Hollywood Blvd, Los Angeles, CA 90027, USA",East Hollywood,,
5200 Monte Vista St,,manual_review,none,Could not find handle automatically,ChIJ16VZuxzEwoAR1kpz_PQx_vE,34.1084142,-118.2008402,"5200 Monte Vista St, Los Angeles, CA 90042, USA",Highland Park,,
715,,manual_review,none,Could not find handle automatically,ChIJyweGFPLHwoAR2CIY63KgPqU,34.0454637,-118.2367476,"738 E 3rd St, Los Angeles, CA 90013, USA",Downtown Los Angeles,(213) 547-0459,http://715sushi.com/
718 Highland Ave,,manual_review,none,Could not find handle automatically,ChIJX81bPNO4woARJlGl91N_jRI,34.0842081,-118.3381817,"718 Highland Ave, Los Angeles, CA 90038, USA",Central LA,,
Baja Subs Market & Deli,,manual_review,none,Could not find handle automatically,ChIJoUefmK2bwoARMQzl_Y6VKfE,34.2309284,-118.5365073,"8801 Reseda Blvd Suite A, Northridge, CA 91324, USA",Northridge,(818) 993-7064,
Banadir Somali Restaurant,,manual_review,none,Could not find handle automatically,ChIJk069ofy2woARnugK5TYbZns,33.9528576,-118.3565905,"137 Arbor Vitae St, Inglewood, CA 90301, USA",Inglewood,(310) 419-9900,https://order.banadirsomalirestaurant.com/
Beckon,,manual_review,none,Could not find handle automatically,ChIJQ_9Q0DJ5bIcRbDAIulshVuY,39.7611853,-104.9823884,"2843 Larimer St, Denver, CO 80205, USA",Five Points,(303) 749-0020,https://www.beckon-denver.com/
Beethoven Market,,manual_review,none,Could not find handle automatically,ChIJlwU_uvC6woAR9hXvi7zlRSg,34.0061566,-118.4463978,"12904 Palms Blvd, Los Angeles, CA 90066, USA",Mar Vista,(323) 579-1391,https://www.beethovenmarket.com/
Belizean Fish Market,,manual_review,none,Could not find handle automatically,ChIJ11w60nK4woARd0i6OLGVLWk,34.0314083,-118.3087944,"2640 1, S Western Ave #2, Los Angeles, CA 90018, USA",South Los Angeles,(323) 732-5405,
Big Ma's Kitchen,,manual_review,none,Could not find handle automatically,ChIJmbFNBQDRwoARSVBb1yuzaKo,34.0623591,-118.0991311,"7808 Garvey Ave, Rosemead, CA 91770, USA",Garvey,(626) 898-9189,
Blossom Market Hall,,manual_review,none,Could not find handle automatically,ChIJNYfgeWTbwoAR5w88nWidWdk,34.0989653,-118.1089682,"264 S Mission Dr, San Gabriel, CA 91776, USA",San Gabriel,(626) 385-7395,https://www.blossommarkethall.com/
Bodega Los Alamos,,manual_review,none,Could not find handle automatically,ChIJI3YloS8F7IARjmUOKtofEyw,34.7443996,-120.2817502,"273 Bell St, Los Alamos, CA 93440, USA",Los Alamos,,http://www.bodegalosalamos.com/
BRUTO,,manual_review,none,Could not find handle automatically,ChIJabPzMvx5bIcRuR-TMXhM1xQ,39.7527783,-104.996991,"1801 Blake St, Denver, CO 80202, USA",Ballpark District,(720) 325-2195,http://brutodenver.com/
Bunkado,,manual_review,none,Could not find handle automatically,ChIJdXcI6UfGwoARraVwugjH_EA,34.0496083,-118.2399976,"340 1st St, Los Angeles, CA 90012, USA",Downtown Los Angeles,(213) 625-1122,http://bunkadoonline.com/
Burritos La Palma,,manual_review,none,Could not find handle automatically,ChIJxztAvPDZwoARUKqI04RO2uE,34.0957961,-118.0117699,"5120 Peck Rd, El Monte, CA 91732, USA",El Monte,(626) 350-8286,http://burritoslapalma.com/
BusterPro Tennis,,manual_review,none,Could not find handle automatically,ChIJIRJIYl-7woARrGyWRtFkPMs,34.0527761,-118.4669952,"11740 San Vicente Blvd, Los Angeles, CA 90049, USA",Brentwood,(310) 820-6140,http://www.busterpro-la.com/
Cafe Brasil,,manual_review,none,Could not find handle automatically,ChIJiTO4Zmu6woARQlFhLHypBlk,33.9993358,-118.4182922,"11736 Washington Blvd, Los Angeles, CA 90066, USA",Culver - West,(310) 391-1216,https://www.cafe-brasil.com/
Caf√© Haleiwa,,manual_review,none,Could not find handle automatically,ChIJ_cU8f8NfAHwRLvbpmTPs87s,21.5812977,-158.1049804,"66-460 Kamehameha Hwy, Haleiwa, HI 96712, USA",North Shore,(808) 637-5516,https://www.cafehaleiwahawaiianislands.com/
CAF√â TRISTE,,manual_review,none,Could not find handle automatically,ChIJ73hyWfbHwoAR3OQuokZzo2M,34.0663681,-118.2359281,"980 N Broadway, Los Angeles, CA 90012, USA",Central LA,(213) 278-0820,http://www.cafetristela.com/
Camphor,,manual_review,none,Could not find handle automatically,ChIJNW1lfmzHwoARxzp7unjgv-0,34.0466391,-118.2342018,"923 E 3rd St Suite 109, Los Angeles, CA 90013, USA",Downtown Los Angeles,(213) 626-8888,http://www.camphor.la/
Capital Dim Sum & BBQ,,manual_review,none,Could not find handle automatically,ChIJFVTNA13FwoARKVMsmhJZP5g,34.0631952,-118.1328893,"727 W Garvey Ave, Monterey Park, CA 91754, USA",Monterey Park,(626) 289-6338,
"Capital Seafood, Monterey Park",,manual_review,none,Could not find handle automatically,ChIJk-6gEWDFwoARrNY5QouRCjE,34.0635949,-118.1331275,"755 W Garvey Ave, Monterey Park, CA 91754, USA",Monterey Park,(626) 282-3318,https://spectrum.capital-seafood.com/
Captain Kidd's Fish Market & Restaurant,,manual_review,none,Could not find handle automatically,ChIJfWsLeqC0woARoOS54MfSZLc,33.843444,-118.3923595,"209 N Harbor Dr, Redondo Beach, CA 90277, USA",South Redondo,(310) 372-7703,http://www.captainkidds.com/
Carlitos Gardel Argentine Steakhouse,,manual_review,none,Could not find handle automatically,ChIJSfKeA8y-woARpP7lY4htzZk,34.0839438,-118.3631913,"7963 Melrose Ave, Los Angeles, CA 90046, USA",Melrose,(323) 655-0891,http://www.carlitosgardel.com/
"Carnes Asadas Pancho Lopez, Mexican Food in Los Angeles CA üá≤üáΩ",,manual_review,none,Could not find handle automatically,ChIJU5QfL6LHwoARElU2Bdi-hLY,34.0837836,-118.2130832,"3328 Pasadena Ave, Los Angeles, CA 90031, USA",Lincoln Heights,(626) 560-4842,http://carnesasadasorder.online/
Carnitas El Artista,,manual_review,none,Could not find handle automatically,ChIJE-a5Sey2woARIOmT8DcN7fo,33.9694092,-118.355732,"510 N La Brea Ave, Inglewood, CA 90301, USA",Inglewood,(424) 331-5771,http://carnitaselartista.com/
Carnitas el Momo,,manual_review,none,Could not find handle automatically,ChIJecqMJuLFwoARkvNfe3NHxek,34.0461724,-118.1615307,"1470 Monterey Pass Rd, Monterey Park, CA 91754, USA",Monterey Park,(323) 627-8540,https://www.carnitaselmomo.com/
Cassell's Hamburgers,,manual_review,none,Could not find handle automatically,ChIJF5CBt4K4woARq2aAD8eq4Wc,34.063437,-118.300521,"3600 W 6th St, Los Angeles, CA 90020, USA",Koreatown,(213) 387-5502,http://www.cassellshamburgers.com/
CH Y La Birria,,manual_review,none,Could not find handle automatically,ChIJL7t4BM_LwoARLFGh84t0Yl4,33.8871921,-118.2503116,"909 S Central Ave Unit 106, Compton, CA 90220, USA",Compton,(310) 629-2013,http://orderchylabirria.mobile-webview2.com/
Cha Cha Chicken,,manual_review,none,Could not find handle automatically,ChIJKfOrltWkwoARFY0_8tyG-rI,34.0071312,-118.490435,"1906 Ocean Ave, Santa Monica, CA 90405, USA",Ocean Park,(310) 581-1684,http://www.chachachicken.com/
Cheaper by the Dozen House,,manual_review,none,Could not find handle automatically,ChIJ7djZNAC5woARVhldJ8DR6hE,34.0673692,-118.3200526,"357s Lorraine Blvd, Los Angeles, CA 90020, USA",Central LA,,
Chef Tony,,manual_review,none,Could not find handle automatically,ChIJ8ahcKprbwoAR1Z8H2eRvy20,34.1272338,-118.054358,"1108 S Baldwin Ave, Arcadia, CA 91007, USA",Arcadia,(626) 623-6668,https://www.cheftonydimsum.com/
Chez Maggy,,manual_review,none,Could not find handle automatically,ChIJS96maGJ5bIcRJRI1kCMY45Q,39.7499238,-104.997889,"1616 Market St, Denver, CO 80202, USA",Central,(720) 794-9544,https://www.chezmaggydenver.com/?utm_source=google&utm_medium=lastmile&utm_campaign=denth-r-chez
Chifa ÂúãÂÅâ,,manual_review,none,Could not find handle automatically,ChIJIU8Bc0_BwoAROGY7LCFmwak,34.1236725,-118.2210263,"4374 Eagle Rock Blvd, Los Angeles, CA 90041, USA",Northeast Los Angeles,(323) 561-3084,https://www.chifa-la.com/
Chong Qing Special Noodles,,manual_review,none,Could not find handle automatically,ChIJ-7B5Vd7awoART5RmRyS4DLI,34.10303,-118.091739,"708 E Las Tunas Dr, San Gabriel, CA 91776, USA",San Gabriel,(626) 374-1849,https://chongqingspecialnoodles.com/
Chong Qing YaoMei Hotpot,,manual_review,none,Could not find handle automatically,ChIJtTEoRlrDwoARWq8fn2pFaXU,34.1447402,-118.1517196,"55 W Green St, Pasadena, CA 91105, USA",South Arroyo,(626) 639-3391,http://www.yaomeipasadena.com/
CJ's Cafe,,manual_review,none,Could not find handle automatically,ChIJy36g3Le5woAREFv1CuWpk2U,34.0199605,-118.3560576,"3655 S La Brea Ave, Los Angeles, CA 90016, USA",South Los Angeles,(323) 292-9221,https://cjs-cafe.shop/
Claro's Italian Market,,manual_review,none,Could not find handle automatically,ChIJPajfY5bawoARjeU-5QOII4U,34.0805217,-118.0862769,"1003 E Valley Blvd, San Gabriel, CA 91776, USA",San Gabriel,(626) 288-2026,https://www.claros.com/
Claro's Italian Markets,,manual_review,none,Could not find handle automatically,ChIJMbq1tcLbwoARJTrSXqHsfq4,34.1402131,-118.0305531,"19 1/2 E Huntington Dr, Arcadia, CA 91006, USA",Arcadia,(626) 446-0275,https://www.claros.com/
Colette Pasadena ‰∫∫ÁîüÂ¶ÇÊàè,,manual_review,none,Could not find handle automatically,ChIJi2XJf4jcwoARuE66qcjm-SU,34.1628965,-118.0683422,"975 N Michillinda Ave, Pasadena, CA 91107, USA",Hastings Ranch,(626) 510-6286,https://www.colettepasadena.com/
Colori Kitchen,,manual_review,none,Could not find handle automatically,ChIJQeJFkLXHwoARzhW_GUAiBio,34.0438915,-118.3010261,"2019 Venice Blvd., Los Angeles, CA 90006, USA",Central LA,(213) 622-5950,http://colorikitchen.com/
Combo A,,manual_review,none,Could not find handle automatically,ChIJB9tHQxzHwoARw-zgu8SFLXo,34.0781042,-118.2569494,"1411 Echo Park Ave #101, Los Angeles, CA 90026, USA",Echo Park,(213) 928-7495,
Common Wave HiFi,,manual_review,none,Could not find handle automatically,ChIJA4HtJQvHwoAR5e60mCEzzes,34.0426209,-118.2253037,"1451 East 4th St Suite 106, Los Angeles, CA 90033, USA",Central LA,(213) 277-4434,http://www.commonwave.net/
Compton's Original Seafood & Chicken,,manual_review,none,Could not find handle automatically,ChIJiS32w0_LwoARewPDXEV2l_4,33.8810147,-118.23617,"1526 S Wilmington Ave, Compton, CA 90220, USA",Compton,(310) 631-8989,https://comptonsoriginalseafood.getbento.com/online-ordering/
Coni‚ÄôSeafood,,manual_review,none,Could not find handle automatically,ChIJFx55nHq2woARJOWFnj7bnDE,33.9306902,-118.3348748,"3544 1/2, 3544 W Imperial Hwy, Inglewood, CA 90303, USA",Inglewood,(310) 672-2339,https://coniseafood.com/
Creekside Park,,manual_review,none,Could not find handle automatically,ChIJVyNuxSwqw4ARkD4L5pjq2D0,34.0278059,-117.8783938,"780 Creekside Dr, Walnut, CA 91789, USA",Walnut,(909) 598-5605,
Creekside Village,,manual_review,none,Could not find handle automatically,ChIJdZCo9cYg6IARYFg_0XiIyKE,34.144202,-118.6993902,"26527 Agoura Rd, Calabasas, CA 91302, USA",Calabasas,,
Crenshaw Juice Co.,,manual_review,none,Could not find handle automatically,ChIJ_QitLNy5woAR2-GXyQJxAUI,34.0157485,-118.3347516,"3860 Crenshaw Blvd, Los Angeles, CA 90008, USA",South Los Angeles,(323) 528-9020,https://www.crenshawjuice.co/
Crossroads Kitchen,,manual_review,none,Could not find handle automatically,ChIJhZy9Gba-woARQLEEpEN46uw,34.083527,-118.370157,"8284 Melrose Ave, Los Angeles, CA 90046, USA",Melrose,(323) 782-9245,http://www.crossroadskitchen.com/
Crudo e Nudo,,manual_review,none,Could not find handle automatically,ChIJlUEcjcS7woAR2LfLzj32DoM,34.0003308,-118.4821996,"2724 Main St, Santa Monica, CA 90405, USA",Ocean Park,(310) 310-2120,http://www.crudoenudo.com/
Crustees,,manual_review,none,Could not find handle automatically,ChIJQV42vXC3woARZOb7IyDsdQY,33.9886561,-118.3533982,"4442 W Slauson Ave, Los Angeles, CA 90043, USA",South Los Angeles,(323) 815-9910,http://www.crusteeseatery.com/
CVS,,manual_review,none,Could not find handle automatically,ChIJL0ipDCaYwoARIDinkjt2Ih0,34.1578646,-118.4917337,"16461 Ventura Blvd, Encino, CA 91436, USA",Encino,(818) 986-2117,https://www.cvs.com/store-locator/encino-ca-pharmacies/16461-ventura-blvd-encino-ca-91436/storeid=2958?WT.mc_id=LS_GOOGLE_FS_2958
Darya Restaurant,,manual_review,none,Could not find handle automatically,ChIJh-hsb0K7woARBZndLFELEKc,34.0401224,-118.4638585,"12130 Santa Monica Blvd, Los Angeles, CA 90025, USA",Sawtelle,(310) 442-9000,http://www.daryarestaurant.com/
Dha Rae Oak,,manual_review,none,Could not find handle automatically,ChIJE4V_cn24woARWMvbbXPqXgw,34.0505559,-118.3087721,"1106 S Western Ave, Los Angeles, CA 90006, USA",Central LA,(323) 733-2474,
Dim Sum Box,,manual_review,none,Could not find handle automatically,ChIJc6sdf7vbwoAR7F2eRWgnMZ4,34.1041721,-118.0903874,"120 N San Gabriel Blvd G, San Gabriel, CA 91775, USA",San Gabriel,(626) 216-6660,
Dio Mio,,manual_review,none,Could not find handle automatically,ChIJI4KvKhp5bIcRWzWjv3llyWY,39.7648862,-104.9769543,"3264 Larimer St, Denver, CO 80205, USA",Five Points,(303) 562-1965,http://www.diomiopasta.com/
Ditroit Taqueria,,manual_review,none,Could not find handle automatically,ChIJ7ZsyRInHwoARHeKk2NzYgo0,34.033075,-118.2290439,"2117 Violet St, Los Angeles, CA 90021, USA",Downtown Los Angeles,(213) 559-7257,
Don Abel,,manual_review,none,Could not find handle automatically,ChIJmSDf9KXPwoARj0BYd893tXI,34.0190548,-118.1519789,"5458 Whittier Blvd, Los Angeles, CA 90022, USA",South Montebello,(562) 612-5991,https://instagram.com/churrosdonabel?utm_source=ig_profile_share&igshid=178q1knhqf1px
"Donlevy, Estess & Lohiya Oral & Maxillofacial Surgery Group in Los Angeles",,manual_review,none,Could not find handle automatically,ChIJuyjOB82wwoARjpiZ2NQmfUA,33.9601144,-118.395726,"8540 S Sepulveda Blvd #709, Los Angeles, CA 90045, USA",Westchester,(323) 594-8949,http://omsurgery.com/?utm_campaign=gmb
Double Needle Denim Repair,,manual_review,none,Could not find handle automatically,ChIJGzrNYwzEwoARRnlytSi9_4Q,34.1187981,-118.194625,"5668 York Blvd, Los Angeles, CA 90042, USA",Highland Park,(323) 397-5821,https://www.instagram.com/doubleneedledenim/?hl=en
"Dr. Rainier A. Manzanilla, MD",,manual_review,none,Could not find handle automatically,ChIJY1p3mQ3GwoARL3w_EMfaG6k,34.0513785,-118.2171632,"1701 E Cesar E Chavez Ave Suite #125, Los Angeles, CA 90033, USA",Central LA,(323) 441-1122,https://www.adventisthealth.org/white-memorial/provider/rainier-a-manzanilla-md-interventional-cardiology
DRIVER,,manual_review,none,Could not find handle automatically,ChIJ-1ddCc6kfwQRSdXDGG135E8,33.7695193,-118.1897836,"235 E Broadway Suite 800, Long Beach, CA 90802, USA",Downtown Core,(562) 204-6051,http://info.driver.rentals/
Duchess,,manual_review,none,Could not find handle automatically,ChIJ29FAXZHHwoARqevJxFj4jCU,34.0418293,-118.2590182,"312 W Olympic Blvd, Los Angeles, CA 90015, USA",Downtown Los Angeles,(213) 536-5122,
Dudley Market,,manual_review,none,Could not find handle automatically,ChIJZ_afsM66woARNjQ8STDWIhs,33.9942477,-118.4796167,"9 Dudley Ave, Venice, CA 90291, USA",Venice,(310) 392-0825,https://dudleymarketvenice.com/
Dulan's On Crenshaw,,manual_review,none,Could not find handle automatically,ChIJ8XK86I63woARr8aszMpIvGk,33.9985214,-118.3311741,"4859 Crenshaw Blvd, Los Angeles, CA 90043, USA",South Los Angeles,(323) 296-3034,http://www.dulansoulfood.com/
Dumpling House,,manual_review,none,Could not find handle automatically,ChIJGXwtb2THwoAR_MhWomlJzTA,34.0692874,-118.292356,"3525 W 3rd St #6, Los Angeles, CA 90020, USA",Koreatown,(213) 389-3899,https://www.dumplinghouseca.com/
Earle's On Crenshaw,,manual_review,none,Could not find handle automatically,ChIJfzqZfze4woARnrC4q63-YDY,34.0156473,-118.3348118,"3864 Crenshaw Blvd, Los Angeles, CA 90008, USA",South Los Angeles,(323) 299-2867,http://www.earlesrestaurant.com/
Eatalian,,manual_review,none,Could not find handle automatically,ChIJXyA2cYvKwoAR7pOW5ece-WA,33.8909068,-118.2783642,"15500 S Broadway, Gardena, CA 90248, USA",Gardena,(310) 532-8880,https://eataliangroup.com/
El Chucho,,manual_review,none,Could not find handle automatically,ChIJjyyKoPm7woARQmKXDc_jJhA,34.0001685,-118.4412385,"12821 Venice Blvd., Los Angeles, CA 90066, USA",Mar Vista,(310) 437-0538,http://www.thebarelchucho.com/
El Huarique Venice,,manual_review,none,Could not find handle automatically,ChIJVyP89Le6woARpojYG5O96Ok,33.988422,-118.4749344,"1301 Ocean Front Walk, Venice, CA 90291, USA",Venice,(310) 452-1254,https://www.elhuariquevenice.com/
El Prado,,manual_review,none,Could not find handle automatically,ChIJa-yZkxvHwoARF8aDKibbOtw,34.0778909,-118.2595149,"1805 Sunset Blvd, Los Angeles, CA 90026, USA",Echo Park,(323) 905-2739,
El Ruso #1,,manual_review,none,Could not find handle automatically,ChIJ-URtEy_PwoARpHuRchShY4Q,34.1098319,-118.2879275,"2081 Hillhurst Ave, Los Angeles, CA 90027, USA",Central LA,(213) 502-1272,http://elrusola.weebly.com/
El Sazon Oaxaqueno,,manual_review,none,Could not find handle automatically,ChIJpXvkBmi6woARXOgrzfEEuI0,34.0010662,-118.4278391,"12131 Washington Pl, Los Angeles, CA 90066, USA",Mar Vista,(310) 391-4721,
El Tepeyac Cafe,,manual_review,none,Could not find handle automatically,ChIJMRRbJPvFwoARFIb4YmkxfrY,34.0477384,-118.197578,"812 N Evergreen Ave, Los Angeles, CA 90033, USA",Central LA,(323) 268-1960,https://rebrand.ly/el-tepeyac
Electric Bleu,,manual_review,none,Could not find handle automatically,ChIJbyaCjJC7woAR_xvFzbIPxX8,34.0099319,-118.4386257,"3523 S Centinela Ave, Los Angeles, CA 90066, USA",Mar Vista,(424) 316-9416,https://electricbleu.com/
Ellie's,,manual_review,none,Could not find handle automatically,ChIJy3uWNBcx3YARyYgXmZovKVY,33.7679944,-118.1767944,"204 Orange Ave, Long Beach, CA 90802, USA",Alamitos Beach,(562) 437-4837,http://ellieslbc.com/
Empress Harbor Seafood Restaurant,,manual_review,none,Could not find handle automatically,ChIJo5obal3FwoARGk7oEDQWT1A,34.0629511,-118.134683,"111 N Atlantic Blvd #350, Monterey Park, CA 91754, USA",Monterey Park,,
Esp Guitar Co,,manual_review,none,Could not find handle automatically,ChIJTUhaPbaVwoARl9scZ5Wkdf4,34.1507631,-118.2775835,"5433 W San Fernando Rd, Los Angeles, CA 90039, USA",Atwater Village,(818) 766-2097,http://www.espguitars.com/
Ethel's Grill,,manual_review,none,Could not find handle automatically,ChIJfx5B2VxuAHwRQvhZNe-MRU8,21.3224067,-157.8842555,"232 Kalihi St, Honolulu, HI 96819, USA",Kalihi - Palama,(808) 847-6467,
√àtra,,manual_review,none,Could not find handle automatically,ChIJOYO2dCO5woARnV2xXAIO7X4,34.0846893,-118.3093181,"737 N Western Ave Suite B, Los Angeles, CA 90029, USA",Central LA,(323) 672-8606,https://etra.la/
Evil Twin LA,,manual_review,none,Could not find handle automatically,ChIJRXkX_l27woARKLI_w3BM0vU,33.9964424,-118.4281594,"4123 S Centinela Ave, Los Angeles, CA 90066, USA",Del Rey,,https://eviltwinla.com/
Exotic Bonsai,,manual_review,none,Could not find handle automatically,ChIJJQKN01zHwoARVY5OQs8P1j0,34.0802463,-118.2883136,"511 N Westmoreland Ave, Los Angeles, CA 90004, USA",East Hollywood,(323) 660-4990,
Exposition Park Rose Garden,,manual_review,none,Could not find handle automatically,ChIJY4yAluLHwoAR7y--92aDHbQ,34.0173508,-118.2859244,"701 State Dr, Los Angeles, CA 90037, USA",South Los Angeles,(213) 763-0114,https://www.laparks.org/park/exposition-rose-garden
Fairmont Miramar Hotel & Bungalows,,manual_review,none,Could not find handle automatically,ChIJBx8nTcSkwoAR1bDfXdfVf20,34.0179602,-118.5016982,"101 Wilshire Blvd, Santa Monica, CA 90401, USA",Wilshire Montana,(310) 576-7777,https://www.fairmont.com/santa-monica/?goto=fiche_hotel&code_hotel=A578&merchantid=seo-maps-US-A578&sourceid=aw-cen&utm_medium=seo%20maps&utm_source=google%20Maps&utm_campaign=seo%20maps
Father's Office,,manual_review,none,Could not find handle automatically,ChIJf_hV-bmkwoARIMlQwgZO9OI,34.0293766,-118.4984416,"1018 Montana Ave, Santa Monica, CA 90403, USA",Wilshire Montana,(310) 736-2224,http://fathersoffice.com/
Father's Office,,manual_review,none,Could not find handle automatically,ChIJraWfUYK5woARS-2eei5FyqA,34.0304077,-118.384824,"3229 Helms Ave, Los Angeles, CA 90034, USA",Mid-City,(310) 736-2224,http://www.fathersoffice.com/
Fiesta Martin Mexican Grill,,manual_review,none,Could not find handle automatically,ChIJE35UfG23woARs6SDJKmlirw,33.9801015,-118.3578606,"1330 N La Brea Ave, Inglewood, CA 90302, USA",Inglewood,(310) 672-1330,http://fiestamartinmexicangrill.com/
Fisherman's Outlet,,manual_review,none,Could not find handle automatically,ChIJSdzoiTrGwoARNH3kQNv_ODs,34.0408871,-118.2402603,"529 S Central Ave, Los Angeles, CA 90013, USA",Downtown Los Angeles,(213) 627-7231,https://www.fishermansoutlet.net/
Fishing With Dynamite,,manual_review,none,Could not find handle automatically,ChIJx8Fqf-uzwoARNgjsQAO6kV0,33.8853543,-118.4109165,"1148 Manhattan Ave, Manhattan Beach, CA 90266, USA",Manhattan Beach,(310) 893-6299,http://eatfwd.com/
Five Star Seafood Restaurant,,manual_review,none,Could not find handle automatically,ChIJz4_oQLfawoAR06OPsxrCWjQ,34.080347,-118.1021774,"225 W Valley Blvd, San Gabriel, CA 91776, USA",San Gabriel,(626) 288-1899,https://fivestarseafoodrestaurant.shop/
Flavors from Afar,,manual_review,none,Could not find handle automatically,ChIJ4bBUgAu5woARBXjZoiwNzCo,34.1015848,-118.313241,"5652 Hollywood Blvd, Hollywood, CA 90028, USA",Hollywood,(562) 719-6704,https://flavorsfromafar.co/?utm_source=google
Fukagawa,,manual_review,none,Could not find handle automatically,ChIJk7eMYYK1woAR_pND4nYsju8,33.8882619,-118.3053109,"1630 W Redondo Beach Blvd, Gardena, CA 90247, USA",Gardena,(310) 324-4306,http://fukagawa.la/
Fyrebird,,manual_review,none,Could not find handle automatically,ChIJgXF-seq1woARiVsc8GY9X6s,33.8877797,-118.3272852,"15717 Crenshaw Blvd, Gardena, CA 90249, USA",Gardena,(424) 269-1943,http://www.fyrebirdchicken.com/
Ggiata Delicatessen,,manual_review,none,Could not find handle automatically,ChIJU1fdR6u7woARyPXQ6KhJMCA,34.0534715,-118.4629919,"11640 San Vicente Blvd Suite 111, Los Angeles, CA 90049, USA",Brentwood,(424) 484-4800,https://ggiata.com/
Ghisallo,,manual_review,none,Could not find handle automatically,ChIJ8Q-vp7m7woARy0JPBCMyo9I,34.011668,-118.4678168,"1622 Ocean Park Blvd, Santa Monica, CA 90405, USA",Sunset Park,(310) 399-4060,https://www.ghisallo.la/
Ghost Pizza Kitchen,,manual_review,none,Could not find handle automatically,ChIJXRWOjc2-woAR3gdF4i8i3fI,34.0839511,-118.359602,"7801 Melrose Ave # 2, Los Angeles, CA 90046, USA",Fairfax,(323) 433-7304,https://www.ghostpizzakitchen.com/
Girl & the Goat Los Angeles,,manual_review,none,Could not find handle automatically,ChIJXVodUFfHwoARe63Z7LSuUnY,34.0402258,-118.2331693,"555-3 Mateo St, Los Angeles, CA 90013, USA",Downtown Los Angeles,(213) 799-4628,http://girlandthegoat.com/
Goldburger Los Feliz,,manual_review,none,Could not find handle automatically,ChIJ1Rccb1zBwoARZvDzH8z9AR0,34.1043022,-118.2915813,"1820 N Vermont Ave, Los Angeles, CA 90027, USA",Central LA,(323) 922-1020,http://goldburgerla.com/
Golden Burger Teriyaki,,manual_review,none,Could not find handle automatically,ChIJx6pNFArHwoARJ_7hQTJpVEU,34.0621198,-118.2714019,"1938 W 3rd St, Los Angeles, CA 90057, USA",Westlake,(213) 484-2868,https://goldenburger.top/
Golden Deli San Gabriel,,manual_review,none,Could not find handle automatically,ChIJlxh9yCrbwoARY2YFozO9D9U,34.1028567,-118.1117593,"815 W Las Tunas Dr, San Gabriel, CA 91776, USA",San Gabriel,(626) 308-0803,https://thegoldendeli.com/goldendelisg?utm_source=google
Good Clean Fun,,manual_review,none,Could not find handle automatically,ChIJp6jJXTXHwoAR9LnnI4WV_EE,34.0438789,-118.25775,"868 S Olive St, Los Angeles, CA 90014, USA",Downtown Los Angeles,(323) 600-3016,http://gcfwines.com/
Good Stuff - Palos Verdes,,manual_review,none,Could not find handle automatically,ChIJBV7NWpRL3YARqB6CNP-KPWg,33.7720728,-118.3739912,"550 Deep Valley Dr #151, Rolling Hills Estates, CA 90274, USA",Rolling Hills Estates,(310) 544-8000,http://www.eatgoodstuff.com/
Gr√°,,manual_review,none,Could not find handle automatically,ChIJ35H4d-fHwoARK-W7Ikwq5VU,34.0665901,-118.2608467,"1524 Pizarro St, Los Angeles, CA 90026, USA",Westlake,,http://gr√°.com/
Gracie's Pizza,,manual_review,none,Could not find handle automatically,ChIJXbVGoFnHwoARsfhdWOPI-i8,34.0833835,-118.2951726,"4330 Melrose Ave, Los Angeles, CA 90029, USA",East Hollywood,(323) 663-1219,
Gran Blanco,,manual_review,none,Could not find handle automatically,ChIJU-eNypO7woARwJBY90BAuDI,33.9874684,-118.4723233,"80 Windward Ave, Venice, CA 90291, USA",Venice,(424) 433-8095,https://granblanco.com/
Gravity Haus Denver Hotel,,manual_review,none,Could not find handle automatically,ChIJgz--PA55bIcR8HszE2avMP8,39.7675837,-105.0037525,"3638 Navajo St, Denver, CO 80211, USA",Highland,(303) 228-5770,https://gravityhaus.com/locations/gravity-haus-denver-hotel
Gusto Bread,,manual_review,none,Could not find handle automatically,ChIJ48g1Fk8x3YARINyUvGM92D0,33.7716135,-118.1598628,"2710 E 4th St, Long Beach, CA 90814, USA",4th Street Corridor,(562) 343-1881,https://gustobread.com/
Haleiwa Joe's Haiku Gardens,,manual_review,none,Could not find handle automatically,ChIJK3Frma1rAHwR14f_NgsLLCs,21.4144058,-157.8154449,"46-336 Haiku Rd, Kaneohe, HI 96744, USA",Kaneohe,(808) 247-6671,https://www.haleiwajoes.com/kaneohe-menu
Happy Harbor Seafood Restaurant Âá±ÊÇÖÂ§ßÈÖíÊ®ì,,manual_review,none,Could not find handle automatically,ChIJb5oTGloqw4ARpZCAmFnBB58,33.996956,-117.8901125,"1015 S Nogales St Ste. 126, Rowland Heights, CA 91748, USA",Rowland Heights,(626) 965-2020,http://www.happyharbor.net/
Happy Together ÂñúËñà,,manual_review,none,Could not find handle automatically,ChIJj-beFtjbwoARAHGfg-HGXDE,34.0792886,-118.0551002,"9920 Valley Blvd 1st floor, El Monte, CA 91731, USA",El Monte,(626) 434-1788,https://www.happytogetherca.com/
Harold & Belle's,,manual_review,none,Could not find handle automatically,ChIJc29xTz-4woAR5txT9avOmac,34.0254532,-118.3279237,"2920 W Jefferson Blvd, Los Angeles, CA 90018, USA",South Los Angeles,(323) 735-9023,https://haroldandbelles.com/
Hasu Japanese Izakaya & Grill,,manual_review,none,Could not find handle automatically,ChIJrbqzKmy1woARvgNkoRG1PUs,33.8722141,-118.3164464,"2120 Artesia Blvd, Torrance, CA 90504, USA",Northeast Torrance,(310) 819-8042,http://hasudining.com/
Hatchet Hall,,manual_review,none,Could not find handle automatically,ChIJ9bOUX2a6woARMexni9pIRdU,33.9970039,-118.4316061,"12517 Washington Blvd, Los Angeles, CA 90066, USA",Culver - West,(310) 391-4222,http://www.hatchethallla.com/
Hawkins House of Burgers,,manual_review,none,Could not find handle automatically,ChIJzwDSzczLwoARijd1lUIzYqc,33.9292554,-118.2522851,"11603 Slater St, Los Angeles, CA 90059, USA",South Los Angeles,(323) 563-1129,http://www.hawkinsburgers.com/menu
Heavy Handed,,manual_review,none,Could not find handle automatically,ChIJy5dj4v67woARgIEvLD_SDPI,33.9990976,-118.4810702,"2912 Main St, Santa Monica, CA 90405, USA",Ocean Park,(818) 299-0326,http://heavyhanded.la/
Heritage,,manual_review,none,Could not find handle automatically,ChIJDcD184Qx3YARLeMltHfb8PU,33.7751463,-118.1668383,"2030 E 7th St, Long Beach, CA 90804, USA",Rose Park South,(562) 343-1068,https://heritagerestaurantlb.com/
Hey Kiddo,,manual_review,none,Could not find handle automatically,ChIJtXx1hZmHa4cRQGgpqy6OEpo,39.7754669,-105.0441331,"4337 Tennyson St #300, Denver, CO 80212, USA",Northwest,(720) 650-4658,http://www.hk-oy.com/
Hippo,,manual_review,none,Could not find handle automatically,ChIJKfzc1hTFwoARglWDAZ2qTXA,34.1106445,-118.1903416,"5916 1/2 N Figueroa St, Los Angeles, CA 90042, USA",Highland Park,(323) 545-3536,http://www.hipporestaurant.com/
Holcomb Street,,manual_review,none,Could not find handle automatically,ChIJYUB8Nee7woARkmGgltl4KHM,34.0508779,-118.3989971,"Holcomb St, Los Angeles, CA 90035, USA",Beverlywood,,
Holy Basil Market,,manual_review,none,Could not find handle automatically,ChIJf7L3TdvBwoARDeaXHZL10Jw,34.1171355,-118.261308,"3170 Glendale Blvd unit c, Los Angeles, CA 90039, USA",Northeast Los Angeles,,http://www.holybasil-la.com/
Holy Basil Santa Monica,,manual_review,none,Could not find handle automatically,ChIJ8-lbzSi7woARimpHDJfXchY,34.0350072,-118.4716263,"2828 Santa Monica Blvd, Santa Monica, CA 90404, USA",Mid-City,,https://www.holybasil-la.com/
Homage Brewing,,manual_review,none,Could not find handle automatically,ChIJQzatpaPHwoARUfPRURrOsJ4,34.0646724,-118.2324719,"1219 N Main St, Los Angeles, CA 90012, USA",Central LA,(323) 987-0388,https://www.homagebrewing.com/
Hop Alley,,manual_review,none,Could not find handle automatically,ChIJiz68dxp5bIcRnDG_uUVRVJw,39.7669902,-104.9742174,"3500 Larimer St, Denver, CO 80205, USA",Five Points,(720) 379-8340,http://www.hopalleydenver.com/
Hotel Las Rosas & Spa,,manual_review,none,Could not find handle automatically,ChIJQfUdnBKT2IARb2I39SOlQhE,31.8699722,-116.6770333,"Carr. a Tijuana Km 105. 5, La Playita, 22760 El Sauzal, B.C., Mexico",La Playita,646 174 4310,http://www.lasrosas.com/
Il Sogno Deli,,manual_review,none,Could not find handle automatically,ChIJ_9ljS0m5woARN6H34h_21Lo,34.0700386,-118.3753882,"444 S San Vicente Blvd, Los Angeles, CA 90048, USA",Central LA,(323) 653-2296,http://www.ilsognodelila.com/
IMA,,manual_review,none,Could not find handle automatically,ChIJB7RMK8e9woARj0juQCDxUiI,34.0690784,-118.40684,"9669 S Santa Monica Blvd #1, Beverly Hills, CA 90210, USA",Beverly Hills,(310) 734-7829,https://www.imabh.com/
Inaba Japanese Restaurant,,manual_review,none,Could not find handle automatically,ChIJx7NewtO0woARCEk05DbH2tA,33.8398115,-118.3530711,"20920 Hawthorne Blvd, Torrance, CA 90503, USA",Delthorne,(310) 371-6675,http://www.restaurantinaba.com/
Izakaya Akatsuki,,manual_review,none,Could not find handle automatically,ChIJSdJyWSO1woARZKYJOPxJvhU,33.865066,-118.3081904,"18206 S Western Ave, Gardena, CA 90248, USA",Harbor Gateway North,(310) 756-6118,https://izakayaakatsuki.com/
J Zhou Oriental Cuisine,,manual_review,none,Could not find handle automatically,ChIJGxHj4yHc3IAR6ZiuJfmRm3s,33.6979246,-117.8265023,"2601 Park Ave, Tustin, CA 92782, USA",Tustin Legacy,(714) 258-0888,
Jackson Market and Deli,,manual_review,none,Could not find handle automatically,ChIJwwKTXSa6woARDmIZa4cziME,34.0172375,-118.3971931,"4065 Jackson Ave, Culver City, CA 90232, USA",Carlson Park,(310) 425-8426,http://jacksonmarketanddeli.com/
Jade Wok,,manual_review,none,Could not find handle automatically,ChIJmUad2VnGwoAR-x_TD_jDKXQ,34.0653581,-118.2407286,"625 W College St #109, Los Angeles, CA 90012, USA",Central LA,(213) 628-8288,https://smorefood.com/order-online/jade-wok-los-angeles-90012-xjb4pkq5?utm_source=gmb&utm_medium=website
Jar,,manual_review,none,Could not find handle automatically,ChIJYxfmZzW5woAR5ZXA4iAzipQ,34.0763,-118.3688492,"8225 Beverly Blvd, Los Angeles, CA 90048, USA",Central LA,(323) 655-6566,http://www.thejar.com/
Javan Restaurant,,manual_review,none,Could not find handle automatically,ChIJbxUhwr67woARKwvV6v5W4cI,34.0452901,-118.4519807,"11500 Santa Monica Blvd, Los Angeles, CA 90025, USA",Sawtelle,(310) 207-5555,http://www.javanrestaurant.com/
Jeong Yuk Jeom Korean BBQ LA,,manual_review,none,Could not find handle automatically,ChIJCVZYpIy5woARnN-7t9XK0FA,34.0629721,-118.3095601,"621 S Western Ave #100, Los Angeles, CA 90005, USA",Koreatown,(213) 384-2244,http://jeongyukjeom.com/
Jidaiya Ramen Dining,,manual_review,none,Could not find handle automatically,ChIJR154mly1woARhkeRuhb5B3s,33.8624973,-118.3097826,"18537 S Western Ave, Gardena, CA 90248, USA",Northeast Torrance,(310) 532-0999,http://www.jidaiya.torihei-usa.com/
Jones,,manual_review,none,Could not find handle automatically,ChIJ_ZaCK9a-woARo6DSOmfgk4s,34.0908821,-118.3464231,"7205 Santa Monica Blvd, West Hollywood, CA 90046, USA",Central LA,(323) 850-1726,https://joneshollywood.com/
Josui Ramen,,manual_review,none,Could not find handle automatically,ChIJN5MyWdi1woAR83ahV_L2sEk,33.8726149,-118.3190198,"2212 Artesia Blvd ste b, Torrance, CA 90504, USA",Northeast Torrance,(310) 505-5124,http://josuiramen.com/
Kashiwa Japanese Cuisine,,manual_review,none,Could not find handle automatically,ChIJoW-RpdYz3YAR4OvgRsavVWs,33.8050993,-118.1648249,"2201 E Willow St suite g, Signal Hill, CA 90755, USA",Signal Hill,(562) 989-5630,
Killer Noodle Tsujita,,manual_review,none,Could not find handle automatically,ChIJ2_gA43S7woARjScbyy51Lyc,34.040324,-118.4428499,"2030 Sawtelle Blvd, Los Angeles, CA 90025, USA",Sawtelle,(424) 293-0465,https://www.killernoodle.com/
Kippered,,manual_review,none,Could not find handle automatically,ChIJYaEcrCXHwoARsvYEJ92JQWg,34.0497465,-118.2493895,"361 S Broadway, Los Angeles, CA 90013, USA",Downtown Los Angeles,,https://www.dtlacheese.com/about-4
Kissaten Corazon,,manual_review,none,Could not find handle automatically,ChIJ7d5NpSvHwoARkpmF9dP-QSA,34.069271,-118.2277223,"1640 N Spring St, Los Angeles, CA 90012, USA",Central LA,,https://www.kissacora.com/
kodo,,manual_review,none,Could not find handle automatically,ChIJV1jAhnvHwoARZ9dxuVaVvU4,34.0341404,-118.2296539,"710 S Santa Fe Ave, Los Angeles, CA 90021, USA",Downtown Los Angeles,(213) 471-1932,http://kodo.la/
KOMAL,,manual_review,none,Could not find handle automatically,ChIJN2ZjSwDJwoARKK1-GW6NSg4,34.0173113,-118.2781477,"3655 S Grand Ave, Los Angeles, CA 90007, USA",South Los Angeles,(213) 275-1062,https://komal.toast.site/order/komal-3655-south-grand-avenue
Kombu Sushi,,manual_review,none,Could not find handle automatically,ChIJf-MncEjHwoARkh07de0d9oo,34.090832,-118.2781336,"3719 Sunset Blvd, Los Angeles, CA 90026, USA",Silver Lake,(323) 663-1048,https://kombula.com/kombusilverlake?utm_source=google
KOTOYA JAPANESE RAMEN,,manual_review,none,Could not find handle automatically,ChIJe2dJnMu7woAR_q9HDxTyXDo,34.0287987,-118.4112756,"10422 National Blvd, Los Angeles, CA 90034, USA",Palms,(424) 326-9149,http://kotoya-la.com/
KTEAM BBQ,,manual_review,none,Could not find handle automatically,ChIJ7_SxewDHwoARyB-lNf7XlZs,34.0546203,-118.291332,"936 S Vermont Ave, Los Angeles, CA 90006, USA",Koreatown,(213) 908-5463,http://kteambbq.com/
KUKU Cafe,,manual_review,none,Could not find handle automatically,ChIJ51AcBaW3woARaO37v-RmNJc,33.967573,-118.3542259,"318 N La Brea Ave, Inglewood, CA 90302, USA",Inglewood,(310) 910-7400,https://kuku.kitchen/
Kyung's Seafood,,manual_review,none,Could not find handle automatically,ChIJe3Ry0ehtAHwROTcC_sXBWoQ,21.2991277,-157.8425903,"1269 S King St, Honolulu, HI 96814, USA",Ala Moana,(808) 589-1144,
La B√™te Noire,,manual_review,none,Could not find handle automatically,ChIJ18aVNMFx5kcRbY23i47sh0Y,48.8397355,2.3376631,"58 Rue Henri Barbusse, 75005 Paris, France",Paris,01 42 01 86 14,https://www.labetenoirerestaurant.fr/
La Boucherie,,manual_review,none,Could not find handle automatically,ChIJbU-IELHHwoARxDEThp4W7kE,34.0503907,-118.2601046,"900 Wilshire Blvd fl 71, Los Angeles, CA 90017, USA",Downtown Los Angeles,(213) 688-7777,
La Cabana Venice,,manual_review,none,Could not find handle automatically,ChIJc2JTRcO6woARZYR4EjVcAYs,34.0008694,-118.4681611,"738 Rose Ave, Venice, CA 90291, USA",Venice,(310) 392-7973,https://www.lacabanavenice.com/
La Cocina de Do√±a Esthela,,manual_review,none,Could not find handle automatically,ChIJp1Jrl_Tv2IAREGfZ3Y-QIVg,32.019341,-116.6635121,"Ranchos, San Marcos, El Porvenir, 22755 San Marcos, B.C., Mexico",El Porvenir,646 156 8453,https://www.facebook.com/people/La-cocina-de-do%C3%B1a-Esthela/100057112763731/?locale=es_LA
La Fe,,manual_review,none,Could not find handle automatically,ChIJERg-8mnHwoARVLDwPHHG26A,34.0763415,-118.2558418,"1525 Sunset Blvd, Los Angeles, CA 90026, USA",Echo Park,,https://lafeonsunset.com/
LA FLAMA Culver City,,manual_review,none,Could not find handle automatically,ChIJj3LySAS7woARSvo8aPE4t8M,34.018747,-118.4076949,"10717 Venice Blvd., Los Angeles, CA 90034, USA",Palms,(310) 876-1211,https://la-flama-at-culver-city-los-angeles.cloveronline.com/all
La Fonda Of Inglewood Restaurant & Cafe,,manual_review,none,Could not find handle automatically,ChIJg-Ztw--2woARsCw4U8__KdA,33.945851,-118.358693,"4649 W Century Blvd, Inglewood, CA 90304, USA",Inglewood,(310) 419-7596,http://www.lafondamexicanfood.com/
La korita tacos,,manual_review,none,Could not find handle automatically,ChIJeTYIP9bOwoAR1jH3scLR1VY,33.9960084,-118.1978142,"3660 Fruitland Ave #3652, Maywood, CA 90270, USA",Maywood,(323) 335-4162,
La Mariana Sailing Club,,manual_review,none,Could not find handle automatically,ChIJ06Xa8E9uAHwR287O0INHQ48,21.3218483,-157.8931526,"50 Sand Island Access Rd, Honolulu, HI 96819, USA",Kalihi - Palama,(808) 848-2800,https://la-mariana-sailing.club/
La Pergoletta,,manual_review,none,Could not find handle automatically,ChIJW9g98LHAwoAR7eaxzvH95Uw,34.1038943,-118.2869547,"1802 Hillhurst Ave, Los Angeles, CA 90027, USA",Central LA,(323) 664-8259,http://www.lapergoletta.com/
La Pergoletta on Sunset,,manual_review,none,Could not find handle automatically,ChIJNzV1OT7HwoARjmgTu-tjkJc,34.0823599,-118.2722073,"2827 Sunset Blvd, Los Angeles, CA 90026, USA",Silver Lake,(213) 318-5505,http://www.lapergoletta.com/
La Potranka,,manual_review,none,Could not find handle automatically,ChIJQW65-KfMwoARSlSi4Z-l5zg,33.905993,-118.208824,"1501 N Long Beach Blvd, Compton, CA 90221, USA",Compton,(323) 915-0764,
LA PUREPECHA COCINA MEXICANA,,manual_review,none,Could not find handle automatically,ChIJP-emuM6lwoAR0Ue5xLU60xo,34.0180167,-118.4901924,"725 Broadway, Santa Monica, CA 90401, USA",Downtown,(424) 744-8523,http://lapurepecha.la/
Lalibela,,manual_review,none,Could not find handle automatically,ChIJQ2hu7xW5woARDzFGVM33-qA,34.0574011,-118.3645025,"1025 S Fairfax Ave, Los Angeles, CA 90019, USA",Little Ethiopia,(323) 965-1025,
Lamonica's NY Pizza,,manual_review,none,Could not find handle automatically,ChIJLRlkyYO8woARcSWHPDaf9ew,34.060902,-118.4468378,"1066 Gayley Ave, Los Angeles, CA 90024, USA",Westwood,(310) 208-8671,https://lamonicasnypizza.com/
Laurel Grill,,manual_review,none,Could not find handle automatically,ChIJ4Yr51Cm7woARcEbxhx1xK2c,34.0243454,-118.3936179,"9300 Culver Blvd suite 210, Culver City, CA 90232, USA",Downtown,(310) 744-1440,http://laurelgrill.com/
Le Great Outdoor Restaurant,,manual_review,none,Could not find handle automatically,ChIJfwjLxD67woARQh2IIpl4pbo,34.0280436,-118.4673174,"2525 Michigan Ave a3, Santa Monica, CA 90404, USA",Pico,(310) 828-4001,http://www.legreatoutdoor.com/
Leona,,manual_review,none,Could not find handle automatically,ChIJqYED5qK6woARR-K0e6jsF0s,33.9802375,-118.4652851,"123 Washington Blvd, Venice, CA 90291, USA",Venice,(310) 822-5379,http://www.leonavenice.com/
Les Sisters' Southern Kitchen,,manual_review,none,Could not find handle automatically,ChIJz6cLkw6bwoARicsfhtFSEC0,34.2316378,-118.5794166,"20450 Nordhoff St, Winnetka, CA 91311, USA",Winnetka,(818) 998-0755,https://lessisters.com/?utm_source=google
Lincoln Seafood,,manual_review,none,Could not find handle automatically,ChIJD1xxJVfFwoARXpBgR5asYc0,34.0616923,-118.121622,"123 S Lincoln Ave, Monterey Park, CA 91755, USA",Monterey Park,,
Little Belize Restaurant,,manual_review,none,Could not find handle automatically,ChIJScaNJQK3woARnRf6dbNPtgw,33.9606851,-118.3525282,"217 E Nutwood St, Inglewood, CA 90301, USA",Inglewood,(310) 674-0696,http://www.littlebelizerestaurant.com/
Little Fatty,,manual_review,none,Could not find handle automatically,ChIJQ--zYVy6woARhg4IaNZ49GY,34.004421,-118.431133,"3809 Grand View Blvd, Los Angeles, CA 90066, USA",Mar Vista,(310) 853-5417,https://www.littlefattyla.com/
Little Fish Echo Park,,manual_review,none,Could not find handle automatically,ChIJCWc7fhHHwoARXg2bZCd7D-8,34.0767539,-118.2577593,"1606 Sunset Blvd, Los Angeles, CA 90026, USA",Echo Park,,https://littlefishechopark.com/
Little Piggy,,manual_review,none,Could not find handle automatically,ChIJs2VXlwK_woAR1cOkLx989Us,34.0967657,-118.3694558,"8264 Sunset Blvd Unit B, West Hollywood, CA 90046, USA",Sunset Strip,(213) 407-0401,
Liu's Cafe,,manual_review,none,Could not find handle automatically,ChIJRaosTfa5woAR4wOTRcJfhog,34.0637013,-118.3084494,"3915 1/2 W 6th St, Los Angeles, CA 90020, USA",Koreatown,(213) 264-8585,http://liuscafe.com/
Lobster & Beer,,manual_review,none,Could not find handle automatically,ChIJP74Xzcy7woARPdoQw6tp4ik,34.0268654,-118.4086682,"3456 Motor Ave, Los Angeles, CA 90034, USA",Palms,(424) 298-8106,https://ilovelobsterandbeer.com/lobsterbeerla?utm_source=google
lolo wine bar,,manual_review,none,Could not find handle automatically,ChIJk0aWgYC_woAR-ZMeTxnBc8Q,34.0979222,-118.3020145,"5140 Sunset Blvd, Los Angeles, CA 90027, USA",East Hollywood,(323) 665-5656,https://lolowinebar.com/
Longo Seafood Restaurant,,manual_review,none,Could not find handle automatically,ChIJ7_aTw6nawoARLZyk4LRQ46Y,34.0623826,-118.1046597,"7540 Garvey Ave, Rosemead, CA 91770, USA",Garvey,(626) 280-8188,https://longoseafoodrestaurant.site/
Lonzo's Restaurant,,manual_review,none,Could not find handle automatically,ChIJy1Rd9jq6woARb2nkBPrsnk4,34.014972,-118.4071946,"10804 Washington Blvd, Culver City, CA 90232, USA",Washington Culver,(310) 842-7876,https://www.lonzosrestaurant.com/
Loreto,,manual_review,none,Could not find handle automatically,ChIJFwh6fX3HwoARr9fhEj7PDPs,34.1011188,-118.2438706,"1991 Blake Ave, Los Angeles, CA 90039, USA",Elysian Valley,,http://loreto.la/
Loreto's Fried Turkey,,manual_review,none,Could not find handle automatically,ChIJT7qSkg_LwoARN72mSLTrg_A,33.8961705,-118.2415687,"983 W Compton Blvd, Compton, CA 90220, USA",Compton,(310) 537-7612,https://loretos.net/
Los Angeles P√©tanque Club,,manual_review,none,Could not find handle automatically,ChIJrTLbwMG7woARh8yjG9woPD4,34.0450553,-118.4121555,"2459 Motor Ave, Los Angeles, CA 90064, USA",Cheviot Hills,(424) 535-8558,http://www.losangelespetanque.org/
Los Cheros Pupuseria,,manual_review,none,Could not find handle automatically,ChIJqziit-zKwoARBDhJZwmxA4g,33.8816216,-118.2753946,"16502 Main St, Gardena, CA 90248, USA",Gardena,(310) 515-0107,https://loscherospupuseria.shop/
Louis Burgers II,,manual_review,none,Could not find handle automatically,ChIJP6yERn3LwoAR49x4m8x6fVI,33.9036386,-118.2067302,"1501 Rosecrans Ave, Compton, CA 90221, USA",Compton,(310) 603-9547,https://louisburgers.store/
Love & Salt,,manual_review,none,Could not find handle automatically,ChIJR6wziuyzwoARFjyYXSB_WJA,33.8854591,-118.4093167,"317 Manhattan Beach Blvd, Manhattan Beach, CA 90266, USA",Manhattan Beach,(310) 545-5252,http://loveandsaltla.com/
Lucky 1 Restaurant,,manual_review,none,Could not find handle automatically,ChIJb4bnho_bwoAROrm4cP4br_s,34.0629935,-118.1025543,"7637 Garvey Ave, Rosemead, CA 91770, USA",Garvey,(626) 280-3718,https://www.lucky1restaurant.com/
Lucky Plaza,,manual_review,none,Could not find handle automatically,ChIJSWw72JDawoARCgPyUOhFujM,34.0801748,-118.0828253,"8526 E Valley Blvd, Rosemead, CA 91770, USA",Rosemead,(626) 307-0062,http://lucky-plaza-rosemead.keeq.io/
Lukshon,,manual_review,none,Could not find handle automatically,ChIJex_4U4K5woARx3e9f4WsS5g,34.0303091,-118.3845696,"3239 Helms Ave, Culver City, CA 90232, USA",Mid-City,(310) 202-6808,http://lukshon.com/
LULU Restaurant LA,,manual_review,none,Could not find handle automatically,ChIJk2YUd_m9woARHeliq1FRRS4,34.0596216,-118.443614,"10899 Wilshire Blvd, Los Angeles, CA 90024, USA",Westwood,(424) 999-4870,https://lulu.restaurant/
Lumi√®re,,manual_review,none,Could not find handle automatically,ChIJ1ebP_g27woARkTzWjtho9Hw,34.0574708,-118.4157903,"2025 Ave of the Stars, Los Angeles, CA 90067, USA",Century City,(310) 424-3031,https://www.lumierebrasserie.com/?utm_source=google+Maps&utm_medium=seo+maps&utm_campaign=seo+maps
Maccheroni Republic,,manual_review,none,Could not find handle automatically,ChIJvVvovUvGwoARYrOMSp23rpQ,34.0500306,-118.2485361,"332 S Broadway, Los Angeles, CA 90013, USA",Downtown Los Angeles,(213) 346-9725,http://www.maccheronirepublic.com/
Madeo Restaurant,,manual_review,none,Could not find handle automatically,ChIJVWDzP6y-woARq0ZRjmyar_c,34.0942093,-118.3761006,"8490 Sunset Blvd, West Hollywood, CA 90069, USA",Sunset Strip,(310) 859-4903,http://madeoristorante.com/
Magokoro,,manual_review,none,Could not find handle automatically,ChIJHcInFCC9YoYR0fsPvogdoCA,25.6561493,-100.3685263,"Calz. del Valle 104 Piso 3, Del Valle San Pedro Garza Garc√≠a, Del Valle, 66220 Monterrey, N.L., Mexico",Del Valle,81 1071 9287,
Maison Kitsun√© Los Angeles,,manual_review,none,Could not find handle automatically,ChIJib6jhfO5woARBg35yWNTVd8,34.0911708,-118.2793672,"3816 Sunset Blvd, Los Angeles, CA 90026, USA",Silver Lake,(323) 284-8866,http://maisonkitsune.com/
Majordomo,,manual_review,none,Could not find handle automatically,ChIJJxloG2HGwoARrnxMRe2L_ik,34.0690822,-118.2261672,"1725 Naud St, Los Angeles, CA 90012, USA",Central LA,(323) 545-4880,http://www.majordomo.la/
Mamie,,manual_review,none,Could not find handle automatically,ChIJieLTdES_woARcimvkZ5k2cM,34.0906829,-118.3617062,"7900 Santa Monica Blvd, West Hollywood, CA 90046, USA",Central LA,(323) 848-4894,http://www.mamiekitchen.com/
Manhattan Beach Post,,manual_review,none,Could not find handle automatically,ChIJ1xvteOuzwoAR4YYewt0xbzU,33.8852472,-118.4107417,"1142 Manhattan Ave, Manhattan Beach, CA 90266, USA",Manhattan Beach,(310) 545-5405,http://eatmbpost.com/
Manuela,,manual_review,none,Could not find handle automatically,ChIJ1c-IyT7GwoARIYcIK2TyJ3k,34.0464599,-118.2348337,"907 E 3rd St, Los Angeles, CA 90013, USA",Downtown Los Angeles,(323) 849-0480,https://manuela-la.com/?utm_source=google&utm_medium=organic&utm_campaign=gbp
Maple Block Meat Co.,,manual_review,none,Could not find handle automatically,ChIJlTadNz-6woARbFsNl3JOTBY,34.0092454,-118.4146775,"3973 Sepulveda Blvd, Culver City, CA 90230, USA",Clarkdale,(310) 313-6328,http://www.mapleblockmeat.com/
Marco Polo,,manual_review,none,Could not find handle automatically,ChIJq6p62k7HwoAR27oENJ9Jv1M,34.0917222,-118.2829931,"4141 Santa Monica Blvd, Los Angeles, CA 90029, USA",Silver Lake,(323) 486-7176,https://marcopolola.com/
Margot,,manual_review,none,Could not find handle automatically,ChIJeVAatpK5woARrSmJrrPMCjc,34.0273631,-118.3869838,"8820 Washington Blvd Suite 301, Culver City, CA 90232, USA",Lucerne - Higuera,(310) 643-5853,https://www.margot.la/
Marina Del Rey Hotel,,manual_review,none,Could not find handle automatically,ChIJiSBrF2G6woARCZ4CwoQfGDE,33.9799284,-118.4459625,"13534 Bali Way, Marina Del Rey, CA 90292, USA",Marina del Rey,(310) 301-1000,https://www.marinadelreyhotel.com/?utm_source=google-local&utm_medium=organic&utm_campaign=gmb
Mario's Italian Deli & Market,,manual_review,none,Could not find handle automatically,ChIJ3atC2wbBwoARuFCpDBv0B4g,34.146095,-118.2457568,"740 E Broadway, Glendale, CA 91205, USA",Citrus Grove,(818) 242-4114,https://www.mariositaliandelimarket.com/
Mariscos y Sushi Tomateros,,manual_review,none,Could not find handle automatically,ChIJF_erafrLwoARZ6WD5nDX5eo,33.9432342,-118.2136688,"10112 State St, Lynwood, CA 90262, USA",Lynwood,(323) 895-3818,
Marouch Restaurant,,manual_review,none,Could not find handle automatically,ChIJj_dmK1THwoARB3JgAHW2gVY,34.0911119,-118.2964175,"4905 Santa Monica Blvd, Los Angeles, CA 90029, USA",East Hollywood,(323) 662-9325,http://www.hollywoodmarouch.com/
Marugame Monzo,,manual_review,none,Could not find handle automatically,ChIJfYSGw0fGwoARyMqh31EfoXg,34.0499426,-118.240048,"329 1st St, Los Angeles, CA 90012, USA",Downtown Los Angeles,(213) 346-9762,https://marugamemonzola.com/
Master Burger,,manual_review,none,Could not find handle automatically,ChIJ9QNPWPq3woARZFw0tamq9CM,34.003085,-118.3091939,"4419 S Western Ave, Los Angeles, CA 90062, USA",South Los Angeles,(323) 295-1940,https://masterburgerca.com/
Mazal,,manual_review,none,Could not find handle automatically,ChIJ1bWBF9_HwoARliht-HQf5ms,34.0746808,-118.221199,"110 N San Fernando Rd, Los Angeles, CA 90031, USA",Lincoln Heights,(323) 576-2138,http://mazal.la/
Meals By Genet,,manual_review,none,Could not find handle automatically,ChIJW9SZwxW5woARkrzV1YcRMAE,34.0566737,-118.3647262,"1053 S Fairfax Ave, Los Angeles, CA 90019, USA",Little Ethiopia,(323) 938-9304,http://mealsbygenetla.com/
M√©lisse Restaurant,,manual_review,none,Could not find handle automatically,ChIJ7fOMUsSkwoARIOVuE_23I1Q,34.0245221,-118.4913563,"1104 Wilshire Blvd, Santa Monica, CA 90401, USA",Downtown,(310) 395-0881,http://citrinandmelisse.com/
Mi Corazon Mexican Cuisine,,manual_review,none,Could not find handle automatically,ChIJMeCpzcvAwoARXil55K-v0Fc,34.1058763,-118.2729202,"2609 Hyperion Ave, Los Angeles, CA 90027, USA",Central LA,(323) 522-3320,http://www.mi-corazon.net/
MIAN,,manual_review,none,Could not find handle automatically,ChIJFQOXULbawoARmCPO2ocyiMQ,34.0801432,-118.1043411,"301 W Valley Blvd #114-115, San Gabriel, CA 91776, USA",San Gabriel,(626) 693-6888,https://www.fetail.com/storev2/shop?store_id=21
MIAN West Adams,,manual_review,none,Could not find handle automatically,ChIJx_RDQoK5woARwXTlKtk5Rkg,34.032787,-118.357406,"5263 W Adams Blvd, Los Angeles, CA 90016, USA",Los Angeles,(323) 332-6176,http://miantaste.com/
Michaels,,manual_review,none,Could not find handle automatically,ChIJiRrTJM6kwoARSNux6NGQP08,34.0382875,-118.4405425,"11260 W Olympic Blvd One, Los Angeles, CA 90064, USA",Sawtelle,(310) 479-1293,https://locations.michaels.com/ca/los-angeles/5035/?utm_source=Google&utm_medium=Maps&utm_campaign=Google+Places
Mignon,,manual_review,none,Could not find handle automatically,ChIJe8tyojXGwoARi1awtzaWShc,34.0446248,-118.2493266,"128 E 6th St, Los Angeles, CA 90014, USA",Downtown Los Angeles,(213) 489-0131,http://www.mignonla.com/
Mikaza Sushi & Lounge,,manual_review,none,Could not find handle automatically,ChIJASP38YjHwoARJLHR85C2PCs,34.0470531,-118.251437,"542 S Broadway, Los Angeles, CA 90013, USA",Downtown Los Angeles,(323) 685-5035,
Milo & Olive,,manual_review,none,Could not find handle automatically,ChIJM5FYc0-7woARcsHdGgoXyTU,34.0375511,-118.4760646,"2723 Wilshire Blvd, Santa Monica, CA 90403, USA",Northeast,(310) 453-6776,http://www.miloandolive.com/
Mitch's Fish Market & Sushi Bar,,manual_review,none,Could not find handle automatically,ChIJO-YwWqpvAHwRKubvaF9GWFg,21.3339681,-157.9080429,"524 Ohohia St, Honolulu, HI 96819, USA",Honolulu,(808) 837-7774,http://mitchssushi.com/
Mizlala West Adams,,manual_review,none,Could not find handle automatically,ChIJfz6TMGW5woARTAZdlUymtbs,34.0321742,-118.3607533,"5400 W Adams Blvd, Los Angeles, CA 90016, USA",Los Angeles,(323) 433-7137,https://www.mizlalarestaurants.com/westadams
Monorom Cambodian Restaurant,,manual_review,none,Could not find handle automatically,ChIJe2C9mnMx3YARcHWFkkf7zsc,33.7822407,-118.1656725,"2150 E Anaheim St, Long Beach, CA 90804, USA",Cambodia Town,(562) 434-1919,
MONTE ALBAN RESTAURANT,,manual_review,none,Could not find handle automatically,ChIJFfpTs2m7woARTTEwyM1IMwM,34.0419276,-118.4613359,"11929 Santa Monica Blvd, Los Angeles, CA 90025, USA",Sawtelle,(310) 444-7736,https://brooklynbornpizzeria.com/
Monterey Palace Restaurant,,manual_review,none,Could not find handle automatically,ChIJuYUNVarawoARLRmpIlocQzI,34.062976,-118.109058,"1001 E Garvey Ave, Monterey Park, CA 91755, USA",Garvey,(626) 571-0888,http://montereypalacerestaurant.site/
Mori Nozomi,,manual_review,none,Could not find handle automatically,ChIJh_EchAm7woAR_M_f_w6W50c,34.0333034,-118.4421762,"11500 W Pico Blvd, Los Angeles, CA 90064, USA",Sawtelle,(424) 273-1146,https://www.morinozomi.com/
Mori Sushi,,manual_review,none,Could not find handle automatically,ChIJp9ZohAm7woARvdg9Sja3QtI,34.0333478,-118.442127,"11500 W Pico Blvd, Los Angeles, CA 90064, USA",Sawtelle,(310) 479-2525,
Mt. Olomana Trail (Three Peaks),,manual_review,none,Could not find handle automatically,ChIJDS33I60UAHwRydnVaBp_3n0,21.3684109,-157.7609667,"Loop Rd, Kailua, HI 96734, USA",Kailua,,https://noahlangphotography.com/blog/mount-olomana-trail-three-peaks-oahu-hawaii
Muelle 3,,manual_review,none,Could not find handle automatically,ChIJSUObvmST2IARaT7SLK97Qj0,31.8610547,-116.6286956,"Paseo del N√°utico, Sobre el malecon, Paseo Olas Altas 187, Centro, 22870 Ensenada, B.C., Mexico",Centro,646 174 0318,
Nalu Vida Venice Beach,,manual_review,none,Could not find handle automatically,ChIJI5Pg8au7woARMNq32_nJCwE,33.9792904,-118.4668602,"1 Washington Blvd, Venice, CA 90292, USA",Venice,(310) 437-0060,http://www.naluvida.com/
NBC Seafood Restaurant,,manual_review,none,Could not find handle automatically,ChIJLWHpQF7FwoAR9Vnm8mvW3YI,34.0585526,-118.1330263,"404 S Atlantic Blvd, Monterey Park, CA 91754, USA",Monterey Park,(626) 282-2323,http://www.nbcrestaurant.com/
Newcomb's Ranch,,manual_review,none,Could not find handle automatically,ChIJmyUenpTpwoAR7Yz_DetEfc4,34.329823,-118.002,"CA-2, La Ca√±ada Flintridge, CA 91011, USA",La Ca√±ada Flintridge,(626) 440-1001,https://www.facebook.com/NewcombsRanch/
Newport Seafood Restaurant,,manual_review,none,Could not find handle automatically,ChIJD8whBCrbwoARZFyRThKqIJI,34.1021765,-118.1068431,"518 W Las Tunas Dr, San Gabriel, CA 91776, USA",San Gabriel,(626) 289-5998,
Nick's Cafe,,manual_review,none,Could not find handle automatically,ChIJDWj_ml7GwoARovw-oXJNxXw,34.0660401,-118.2331733,"1300 N Spring St, Los Angeles, CA 90012, USA",Central LA,(323) 222-1450,https://www.nickscafela.com/
Night + Market Weho,,manual_review,none,Could not find handle automatically,ChIJ93f0oKG-woAR1g08r2EtyRY,34.0908419,-118.3891958,"9043 Sunset Blvd West, West Hollywood, CA 90069, USA",Sunset Strip,(310) 275-9724,http://www.nightmarketsong.com/
Object,,manual_review,none,Could not find handle automatically,ChIJWSulwdS4woAR7DQBNzC7ipc,34.0833128,-118.3420777,"6910 Melrose Ave, Los Angeles, CA 90038, USA",Melrose,(323) 936-0021,http://www.object-la.com/
Oc & Lau Restaurant,,manual_review,none,Could not find handle automatically,ChIJIxbGYcQn3YAR5m4f2kVYyuw,33.7732436,-117.9558653,"10130 Garden Grove Blvd, Garden Grove, CA 92843, USA",Garden Grove,(714) 636-2000,https://oclaurestaurant.com/
Ocean Bo Dim Sum Cafe,,manual_review,none,Could not find handle automatically,ChIJ5SOSgazQwoARautP8kLfZDE,34.0768516,-118.0211739,"3944 Peck Rd, El Monte, CA 91732, USA",El Monte,(626) 452-1818,http://oceanbodimsum.com/
OH LA LA,,manual_review,none,Could not find handle automatically,ChIJvUWRuH3DwoARQCEJXemfZ7Y,34.1461793,-118.1313991,"921 E Colorado Blvd, Pasadena, CA 91106, USA",Catalina Villas,(626) 583-8888,https://www.ohlalalosangeles.com/
Ohana Superette,,manual_review,none,Could not find handle automatically,ChIJ9THZtD_HwoARHbQuHXAPOdY,34.082549,-118.2731857,"2850 Sunset Blvd, Los Angeles, CA 90026, USA",Silver Lake,,http://www.ohanasuperette.la/
Olivia Restaurant,,manual_review,none,Could not find handle automatically,ChIJTasbtVrHwoAR4AXWcZFu1Kk,34.0703206,-118.2921764,"205 S Vermont Ave, Los Angeles, CA 90004, USA",Koreatown,(213) 277-1723,https://oliviarestaurantla.com/
Open Sesame Grill - Long Beach,,manual_review,none,Could not find handle automatically,ChIJxYlPETYw3YARI4v-ecGueZo,33.7603658,-118.1347418,"5215 2nd St, Long Beach, CA 90803, USA",Belmont Shore,(562) 621-1698,http://www.opensesamegrill.com/
ORA,,manual_review,none,Could not find handle automatically,ChIJW0o0Q0m3woARhowYbV87-4g,34.0050993,-118.3316601,"4331 Degnan Blvd, Los Angeles, CA 90008, USA",South Los Angeles,(323) 903-6449,https://ora.energy/
Orleans & York Inglewood,,manual_review,none,Could not find handle automatically,ChIJaUxRXwa3woARdn14D4eFFnA,33.9671065,-118.350286,"400 E Florence Ave, Inglewood, CA 90301, USA",Inglewood,(310) 671-6200,https://www.orleansandyorkdeli.com/
Orsa & Winston,,manual_review,none,Could not find handle automatically,ChIJh9W-NkrGwoARmn2KQbXkdhg,34.0484248,-118.2480162,"FARMERS AND MERCHANTS BANK BUILDING, 122 4th St, Los Angeles, CA 90013, USA",Downtown Los Angeles,(213) 687-0300,http://orsaandwinston.com/
Ospi Venice,,manual_review,none,Could not find handle automatically,ChIJmWxvuXq7woAR2IhTan5Zzp0,33.9851108,-118.4704119,"2025 Pacific Ave, Venice, CA 90291, USA",Venice,(424) 407-1957,https://ospi.com/venice
Otomisan Restaurant,,manual_review,none,Could not find handle automatically,ChIJ2RqKBAfGwoARXSZOQkp0C-E,34.0429122,-118.20839,"1st St, Los Angeles, CA 90033, USA",Central LA,(323) 526-1150,https://otomisanrestaurant.com/home
P1,,manual_review,none,Could not find handle automatically,ChIJzbINrymxwoARS2brgyK99NQ,33.9448242,-118.4006469,"1d Center Wy, Los Angeles, CA 90045, USA",Westchester,,
Palmeri Ristorante,,manual_review,none,Could not find handle automatically,ChIJX1dF91-7woARYX_H2NV6Jv0,34.0536902,-118.4636871,"11650 San Vicente Blvd, Los Angeles, CA 90049, USA",Brentwood,(310) 442-8446,http://www.palmeriristorantespa.com/
Parkers' Lighthouse,,manual_review,none,Could not find handle automatically,ChIJ845fqCUx3YARbBeWgWBGpRM,33.7598611,-118.1917967,"435 Shoreline Village Drive, Long Beach, CA 90802, USA",Waterfront,(562) 432-6500,http://www.parkerslighthouse.com/
Pasta Sisters,,manual_review,none,Could not find handle automatically,ChIJA-ZYDSu5woARRnUA678ZKvI,34.0475368,-118.3171697,"3343 W Pico Blvd, Los Angeles, CA 90019, USA",Arlington Heights,(323) 870-5271,http://www.pastasisters.com/
Paul Bar/Food,,manual_review,none,Could not find handle automatically,ChIJlZZl0p0d24AR_d4Tf3576ZI,33.8453756,-116.5053099,"3700 E Vista Chino, Palm Springs, CA 92262, USA",Palm Springs,(760) 656-4082,http://thepaulbarps.com/
Pearl River Deli,,manual_review,none,Could not find handle automatically,ChIJFYCW7ZXHwoAR-kWhlThLezI,34.0651924,-118.2381254,"935 Mei Ling Wy, Los Angeles, CA 90012, USA",Central LA,,http://www.toasttab.com/pearlriverdeli
Peking Tavern,,manual_review,none,Could not find handle automatically,ChIJNRuP28rHwoARsVROzrrmszs,34.0494687,-118.2437491,"236 S Los Angeles St suite g, Los Angeles, CA 90012, USA",Downtown Los Angeles,(213) 393-7106,https://www.pekingtavern.com/home
Pepper Tavern ÂõõÂ∑ùÈõÜÂ∏Ç,,manual_review,none,Could not find handle automatically,ChIJk_J2-DHFwoARENm2zd_p_R4,34.080006,-118.101382,"137 W Valley Blvd, San Gabriel, CA 91776, USA",San Gabriel,(626) 872-1179,https://www.peppertavern.com/
Perilla LA,,manual_review,none,Could not find handle automatically,ChIJsSNupLe5woARgIO3oWlJ9ps,34.0657094,-118.246928,"1027 Alpine St BLDG E, Los Angeles, CA 90012, USA",Chinatown,(626) 775-5645,http://perillala.com/
PERU CHICHA PERUVIAN RESTAURANT.,,manual_review,none,Could not find handle automatically,ChIJ0TrUXUG1woARnto2MZx0kkA,33.8970686,-118.3085998,"14800 S Western Ave # 103, Gardena, CA 90249, USA",Gardena,(310) 819-8665,
Petit Trois,,manual_review,none,Could not find handle automatically,ChIJydzjPNO4woAR9la4IiglqbA,34.0841618,-118.3381893,"718 Highland Ave, Los Angeles, CA 90038, USA",Central LA,(323) 468-8916,http://www.petittrois.com/
Petite Peso,,manual_review,none,Could not find handle automatically,ChIJo2MzP9LHwoARAhjwB1oZW1E,34.046316,-118.2548243,"419 W 7th St, Los Angeles, CA 90014, USA",Downtown Los Angeles,(209) 438-7376,
Phat Noodles,,manual_review,none,Could not find handle automatically,ChIJpWn9JWzLwoARVmuR936sO2k,33.8953201,-118.223792,"104 E Compton Blvd, Compton, CA 90220, USA",Compton,(424) 338-6844,
Phillips Bar-B-Que,,manual_review,none,Could not find handle automatically,ChIJ56dkOWu3woAR_iBbsRyq598,33.9766667,-118.3655556,"1517 Centinela Ave, Inglewood, CA 90302, USA",Inglewood,(310) 431-4815,https://instagram.com/phillipsbbqinglewood?utm_medium=copy_link
Phnom Penh Noodle Shack,,manual_review,none,Could not find handle automatically,ChIJ27rL9HAx3YARWSo8BUALEr4,33.7879375,-118.1675313,"1644 Cherry Ave, Long Beach, CA 90813, USA",Whittier,(562) 433-0032,https://thenoodleshack.com/?utm_source=google
Phorage Vietnamese Overland,,manual_review,none,Could not find handle automatically,ChIJ18alAsu7woARhEobtA6w-Ck,34.0276004,-118.4132482,"3300 Overland Ave, Los Angeles, CA 90034, USA",Westside Village,(310) 876-0910,http://phoragela.com/
Pinky's Los Feliz,,manual_review,none,Could not find handle automatically,ChIJ55q6W3nBwoAR7zYES5tOSfc,34.1041698,-118.2914619,"1816 N Vermont Ave, Los Angeles, CA 90027, USA",Central LA,(323) 763-0351,
Pinyon Ojai,,manual_review,none,Could not find handle automatically,ChIJ6e5sT0ml6YARrl188yS6r4g,34.4478582,-119.2428069,"423 E Ojai Ave Ste 101, Ojai, CA 93023, USA",Ojai,,https://pinyonfamily.com/ojai
Pizzana,,manual_review,none,Could not find handle automatically,ChIJa8YvKhzHwoARNsesjH1rw4s,34.0892987,-118.2765157,"3515 Sunset Blvd, Los Angeles, CA 90026, USA",Silver Lake,(213) 410-4400,https://pizzana.com/
Pizzeria Bianco,,manual_review,none,Could not find handle automatically,ChIJU4B7dFzHwoARzYn5dctIk0I,34.0343553,-118.2415658,"1320 E 7th St Suite 100, Los Angeles, CA 90021, USA",Downtown Los Angeles,(213) 372-5155,https://www.pizzeriabianco.com/los-angeles
Pizzeria Mozza,,manual_review,none,Could not find handle automatically,ChIJbWvuoNO4woARx2Xy5MvJ138,34.0831169,-118.3388666,"641 Highland Ave, Los Angeles, CA 90036, USA",Melrose,(323) 297-0101,http://www.pizzeriamozza.com/
Pizzeria Sei,,manual_review,none,Could not find handle automatically,ChIJZzA8EM25woAR4SmcyXbfxBE,34.0549589,-118.383437,"8781 W Pico Blvd, Los Angeles, CA 90035, USA",Pico-Robertson,(424) 279-9800,http://www.pizzeriasei.com/
Polaris Media Lab,,manual_review,none,Could not find handle automatically,ChIJA0KB332_woAR2jRvZu3W4KE,34.1108854,-118.328698,"2169 Willetta Ave N, Los Angeles, CA 90068, USA",Central LA,,
Pollo A La Brasa,,manual_review,none,Could not find handle automatically,ChIJy7zNpMi5woARzzZwdauukV0,34.0578089,-118.308724,"764 S Western Ave, Los Angeles, CA 90005, USA",Koreatown,(213) 387-1531,
Pop's Chicken,,manual_review,none,Could not find handle automatically,ChIJayD7-HPLwoARSk7_TXwcsPI,33.903533,-118.2239308,"117 Rosecrans Ave, Compton, CA 90222, USA",Compton,(310) 871-2837,
Porta Via Italian Foods,,manual_review,none,Could not find handle automatically,ChIJMU2GZ3zDwoARars-iw6-B9k,34.1359062,-118.1508865,"1 W California Blvd #312, Pasadena, CA 91105, USA",South Arroyo,(626) 793-9000,https://portaviafoods.com/
Post & Beam,,manual_review,none,Could not find handle automatically,ChIJHQ2ElC64woARivNi5I0WYSg,34.0098528,-118.3390278,"3767 Santa Rosalia Dr, Los Angeles, CA 90008, USA",South Los Angeles,(323) 299-5599,http://postandbeamla.com/
Potager,,manual_review,none,Could not find handle automatically,ChIJSQrn7NF-bIcRW1sYMcUq_mE,39.7340395,-104.9754778,"1109 Ogden St, Denver, CO 80218, USA",Central,(303) 246-7073,http://www.potagerrestaurant.com/
Premiere Dental Group,,manual_review,none,Could not find handle automatically,ChIJ4beo0oC6woAREssxotSlCo0,33.9826676,-118.4414876,"4560 Admiralty Way #250, Marina Del Rey, CA 90292, USA",Marina del Rey,(310) 822-3472,https://www.premieredentalgroup.com/
Primitivo Restaurante,,manual_review,none,Could not find handle automatically,ChIJ9-_YrSjv2IAR2kwffPxdoOU,32.011472,-116.6277268,"Carretera Tecate-Ensenada km 89 San Antonio de las Minas, 22753 Ensenada, B.C., Mexico",Ensenada,646 947 8523,http://www.primitivorestaurante.com/
Q,,manual_review,none,Could not find handle automatically,ChIJdVr6UrTHwoARPa44y99pcs8,34.0471236,-118.2561055,"521 W 7th St, Los Angeles, CA 90014, USA",Downtown Los Angeles,(213) 225-6285,http://qsushila.com/
Quarters Korean BBQ,,manual_review,none,Could not find handle automatically,ChIJoz3QPH3HwoAR-eUJ2juVyzQ,34.064016,-118.297709,"3465 W 6th St #C-130, Los Angeles, CA 90020, USA",Koreatown,(213) 468-0065,https://www.quarterskbbq.com/
Quintas Papagayo,,manual_review,none,Could not find handle automatically,ChIJtQcvKczY2IAR01DDSpSAc5o,31.8639247,-116.6569832,"Carr. Tijuana-Ensenada Km 108, Zona Playitas, 22870 Ensenada, B.C., Mexico",Zona Playitas,646 174 4575,https://www.quintaspapagayo.com/
R/10 Social House,,manual_review,none,Could not find handle automatically,ChIJ3xKkcKC0woARw9QdkYklyc0,33.842631,-118.39205,"179 N Harbor Dr, Redondo Beach, CA 90277, USA",South Redondo,(310) 798-2500,http://r10socialhouse.com/
"Rainforest Flora, Inc.",,manual_review,none,Could not find handle automatically,ChIJxwWKa-e0woARcWTnGdeccgA,33.8569818,-118.3542233,"19121 Hawthorne Blvd, Torrance, CA 90503, USA",West Torrance,(310) 370-8044,https://www.rainforestflora.com/
Ramona Room,,manual_review,none,Could not find handle automatically,ChIJEy4mphDHwoARejZ9zUN_d4U,34.0776068,-118.2646526,"2135 Sunset Blvd, Los Angeles, CA 90026, USA",Echo Park,(213) 699-9056,http://theramonaroom.com/
Rangoon Burmese kitchen,,manual_review,none,Could not find handle automatically,ChIJy0j-0opvAHwRWJmJld0b1rA,21.3112841,-157.8613332,"1131 Nuuanu Ave, Honolulu, HI 96817, USA",Arts District,(808) 367-0645,
Rasarumah,,manual_review,none,Could not find handle automatically,ChIJ5fd-NQDHwoARKiTGuaNIeco,34.0721039,-118.2824117,"3107 Beverly Blvd, Los Angeles, CA 90026, USA",Westlake,(213) 567-3547,http://www.rasarumah.com/
Rasselbock Kitchen & Beer Garden,,manual_review,none,Could not find handle automatically,ChIJtRAY0pgz3YARrvEEEZ40s5c,33.8313059,-118.1848126,"4020 Atlantic Ave, Long Beach, CA 90807, USA",Bixby Knolls,(562) 912-4949,http://www.rasselbocklb.com/
Ray's Texas Bbq,,manual_review,none,Could not find handle automatically,ChIJXX10eR_JwoAR7OJ1RFKTuYo,33.9865948,-118.2299478,"6038 Santa Fe Ave, Huntington Park, CA 90255, USA",Huntington Park,(310) 689-6353,http://123brisket.com/
Redbird,,manual_review,none,Could not find handle automatically,ChIJv4yVGknGwoARC_5zwy3zU5M,34.050562,-118.2440748,"114 E 2nd St, Los Angeles, CA 90012, USA",Downtown Los Angeles,(213) 788-1191,http://www.redbird.la/
Restaurant Ki,,manual_review,none,Could not find handle automatically,ChIJ6fB8aADHwoARxXCY99wLo0U,34.0500968,-118.2413802,"111 San Pedro St, Los Angeles, CA 90012, USA",Downtown Los Angeles,,https://www.exploretock.com/restaurant-ki
Revival Denver Public House,,manual_review,none,Could not find handle automatically,ChIJdf7vwDB5bIcRUKbqopeByXc,39.7431046,-104.9789215,"630 E 17th Ave, Denver, CO 80203, USA",North Capitol Hill,(720) 524-7867,http://revival-denver.com/
Rhythm Room L.A.,,manual_review,none,Could not find handle automatically,ChIJTwsCo0rGwoARKKzn_4khivA,34.046041,-118.251384,"206 W 6th St BSMT, Los Angeles, CA 90014, USA",Downtown Los Angeles,(213) 537-0394,http://www.rhythmroomla.com/
Roasted Duck by Pa Ord,,manual_review,none,Could not find handle automatically,ChIJharH4mq_woAR3f7EfNbthQ8,34.1014827,-118.3018944,"5136 Hollywood Blvd, Los Angeles, CA 90027, USA",East Hollywood,(323) 599-6511,http://www.ordroastedduck.com/
Roma Market,,manual_review,none,Could not find handle automatically,ChIJt3lehj7DwoARjFDvXyu8m78,34.1618528,-118.1323278,"918 N Lake Ave, Pasadena, CA 91104, USA",Bungalow Heaven,(626) 797-7748,
Ronan,,manual_review,none,Could not find handle automatically,ChIJu4wpBcm_woARVYpXzbD6yaU,34.0837054,-118.3492464,"7315 Melrose Ave, Los Angeles, CA 90046, USA",Fairfax,(323) 917-5100,http://ronanla.com/
Ronnie's Diner,,manual_review,none,Could not find handle automatically,ChIJ6Z6W4Ha6woARMjTJ8EzTJpA,33.9854056,-118.4251417,"12740 Culver Blvd, Los Angeles, CA 90066, USA",Del Rey,(310) 578-9399,http://ronniesdiner.com/
Rory Fashion,,manual_review,none,Could not find handle automatically,ChIJATzRP83HwoARoVm_g_CGeCM,34.0362038,-118.25425,"1100 Wall St # 108, Los Angeles, CA 90015, USA",Downtown Los Angeles,(213) 748-9003,http://roryfashion.com/
Royal Lobster LA,,manual_review,none,Could not find handle automatically,ChIJk4nvq9-5woARwK1RG8aP2ZY,34.0760866,-118.3060305,"4450 Beverly Blvd, Los Angeles, CA 90004, USA",Koreatown,(808) 900-2983,https://www.royallobsterla.com/
Rustic Canyon,,manual_review,none,Could not find handle automatically,ChIJVSrXF8qkwoARXxeoyWyDrHk,34.0250795,-118.4913174,"1119 Wilshire Blvd, Santa Monica, CA 90401, USA",Wilshire Montana,(310) 393-7050,http://www.rusticcanyonrestaurant.com/
Rusty Pot Caf√©,,manual_review,none,Could not find handle automatically,ChIJcZjf9AG3woARtuMPblEtqpE,33.9599279,-118.3516982,"324 S Market St, Inglewood, CA 90301, USA",Inglewood,(310) 412-5901,https://rustypotcafe.com/?utm_source=google
RVR,,manual_review,none,Could not find handle automatically,ChIJZ1pkfgC7woARjdvLWPbggwg,33.99135,-118.4679423,"1305 Abbot Kinney Blvd, Venice, CA 90291, USA",Venice,(310) 573-8077,http://www.rvr.la/
Sakae Sushi,,manual_review,none,Could not find handle automatically,ChIJP7TQi4G1woARf84immqdMm8,33.8901607,-118.3049171,"1601 W Redondo Beach Blvd #112, Gardena, CA 90247, USA",Gardena,(310) 532-4550,http://sakaesushigardena.com/
Sakura-Ya,,manual_review,none,Could not find handle automatically,ChIJIdydu3m1woARYwz2fP82mV8,33.8840762,-118.3089734,"16134 S Western Ave, Gardena, CA 90247, USA",Gardena,(310) 323-7117,https://sakurayagardena.com/
Santa Canela,,manual_review,none,Could not find handle automatically,ChIJowrYmMLFwoARfBaOlCGmRNk,34.1091426,-118.1941328,"5601 N Figueroa St unit 120, Los Angeles, CA 90042, USA",Highland Park,,http://www.santacanela.com/
Sarita's Pupuseria,,manual_review,none,Could not find handle automatically,ChIJqX-Yk0vGwoARrZJbkvesnxo,34.051052,-118.2493274,"317 S Broadway E5, Los Angeles, CA 90013, USA",Downtown Los Angeles,(213) 626-6320,http://www.grandcentralmarket.com/vendors/32/saritas-pupuseria
Savta,,manual_review,none,Could not find handle automatically,ChIJB0vwhQO5woAR4_iegn7UzHY,34.0718216,-118.3609908,"6333 W 3rd St Suite 110, Los Angeles, CA 90036, USA",Fairfax,(323) 287-5555,https://www.savtarestaurant.com/
Sea Harbour Seafood Restaurant,,manual_review,none,Could not find handle automatically,ChIJ_TQYZY_awoARAjrVzsNYoYo,34.0798326,-118.0734805,"3939 Rosemead Blvd, Rosemead, CA 91770, USA",Rosemead,(626) 288-3939,https://seaharbour.shop/
Senia,,manual_review,none,Could not find handle automatically,ChIJRZadjXNuAHwRQ0l2_ic2glc,21.3113523,-157.8636231,"75 N King St, Honolulu, HI 96817, USA",Downtown,(808) 200-5412,http://www.restaurantsenia.com/
Seong Buk Dong,,manual_review,none,Could not find handle automatically,ChIJO9M6hXzHwoAR0cimcXbbsy4,34.0639989,-118.2943534,"3303 W 6th St, Los Angeles, CA 90020, USA",Koreatown,(213) 738-8977,https://seongbukdong.shop/
Shin-Sen-Gumi Chanko - Gardena,,manual_review,none,Could not find handle automatically,ChIJYXlDmly1woARVpq1PRCkZds,33.8628597,-118.3095452,"18517 S Western Ave, Gardena, CA 90248, USA",Northeast Torrance,(310) 715-1588,http://www.shinsengumigroup.com/
Shin-Sen-Gumi Shabu-Shabu,,manual_review,none,Could not find handle automatically,ChIJtfuvH2S1woARUaGqUzTjET0,33.873354,-118.306589,"1695 Artesia Blvd, Gardena, CA 90248, USA",Gardena,(310) 649-2904,http://www.shinsengumigroup.com/
Shins Pizza,,manual_review,none,Could not find handle automatically,ChIJ4QeDUEjHwoARz0_6tHgpwNM,34.0956641,-118.228049,"1215 1/2 Cypress Ave, Los Angeles, CA 90065, USA",Northeast Los Angeles,(323) 332-2028,http://shinspizza.com/?utm_source=GoogleBusinessProfile&utm_medium=Website&utm_campaign=MapLabs
Shirubƒì,,manual_review,none,Could not find handle automatically,ChIJkZvbH36lwoARn7gRx2v_cjQ,34.0193798,-118.4975511,"424 Wilshire Blvd, Santa Monica, CA 90401, USA",Downtown,(310) 393-2533,https://shirubeusa.com/
Si! Mon,,manual_review,none,Could not find handle automatically,ChIJxyDoj5u7woARttWkJDjVa7g,33.9846764,-118.4703202,"60 N Venice Blvd, Venice, CA 90291, USA",Venice,(310) 302-0016,https://www.si-mon.la/
Sichuan Impression,,manual_review,none,Could not find handle automatically,ChIJa9ZAxEm7woARKUF0-cjv72E,34.0481991,-118.4433111,"11057 Santa Monica Blvd, Los Angeles, CA 90025, USA",Westwood,(310) 444-7171,https://www.toasttab.com/sichuanimpressionwla
Sichuan Impression,,manual_review,none,Could not find handle automatically,ChIJMUDoKhLFwoARnf9iE98ouYc,34.0943092,-118.1299999,"235 W Main St SuiteB, Alhambra, CA 91801, USA",Alhambra,(626) 283-4622,https://www.sichuanimpressions.com/
Sichuan Impression Èî¶ÂüéÈáå,,manual_review,none,Could not find handle automatically,ChIJ5cInpcIrw4ARrGcagndrbHs,33.9952044,-117.9093225,"18065 Gale Ave, City of Industry, CA 91748, USA",City of Industry,(626) 669-7089,https://www.sichuanimpressions.com/
Sichuan Spicy Bay,,manual_review,none,Could not find handle automatically,ChIJcxuq11XbwoARM8nrTy-mvds,34.0800683,-118.1104619,"1265 E Valley Blvd, Alhambra, CA 91801, USA",Alhambra,(626) 872-1188,https://order.mealkeyway.com/merchant/75564a776b486554563477573834344c6657554d39773d3d/main
Sichuan Street Food (ÂΩì‰ª£Â∑ùËèú),,manual_review,none,Could not find handle automatically,ChIJl0m1nhrDwoARxSbYtqUcEq4,34.1447168,-118.128905,"1035 E Green St, Pasadena, CA 91106, USA",Pasadena,(626) 977-7000,http://www.sichuanstreetfoodonline.com/
Side Street Inn On Da Strip,,manual_review,none,Could not find handle automatically,ChIJ_cwZoYBtAHwRI6Ykbv5JdqY,21.2788318,-157.8141062,"614 Kapahulu Ave #100, Honolulu, HI 96815, USA",Diamond Head / Kapahulu / St. Louis Heights,(808) 739-3939,https://sidestreetinn.com/
Simply Wholesome,,manual_review,none,Could not find handle automatically,ChIJSwdnhnC3woAR_f2MCa7ftaE,33.988638,-118.354489,"4508 W Slauson Ave, Los Angeles, CA 90043, USA",South Los Angeles,(323) 294-2144,http://simplywholesome.com/
Smoke and Fire Social Eatery,,manual_review,none,Could not find handle automatically,ChIJkdWfiXLNwoAR-SbXAoYIckc,33.8893822,-118.1595454,"8009 Alondra Blvd, Paramount, CA 90723, USA",Paramount,(562) 363-3109,https://www.thesmokeandfire.com/
Somerville,,manual_review,none,Could not find handle automatically,ChIJ1_u02zi3woARqK7EFUz_Y4s,33.9892135,-118.3531118,"4437 W Slauson Ave, View Park-Windsor Hills, CA 90043, USA",South Los Angeles,(323) 815-1505,https://www.somervilleslauson.com/
Sonido Del Valle,,manual_review,none,Could not find handle automatically,ChIJOaW0xw7GwoARFuGAcZtCKtM,34.0445358,-118.2135306,"2108 1st St, Los Angeles, CA 90033, USA",Central LA,(323) 532-2259,http://sonidodelvalle.com/
South LA Cafe,,manual_review,none,Could not find handle automatically,ChIJbS0cGVO5woARaBf0Grhvoj0,34.0117972,-118.3406353,"3782 W Martin Luther King Jr Blvd, Los Angeles, CA 90008, USA",South Los Angeles,(323) 207-6027,http://www.southlacafe.com/
Spartina,,manual_review,none,Could not find handle automatically,ChIJYX7WCtO-woAR553fj8LNDag,34.083875,-118.3535238,"7505 Melrose Ave, Los Angeles, CA 90046, USA",Fairfax,(323) 782-1023,http://spartina.la/
Spina,,manual_review,none,Could not find handle automatically,ChIJI7udFD_BwoARt7uoEa_1d_8,34.1179185,-118.2613447,"3193 Glendale Blvd, Los Angeles, CA 90039, USA",Northeast Los Angeles,,http://www.spina-losangeles.com/
SteelCraft Long Beach,,manual_review,none,Could not find handle automatically,ChIJlQAcPZoz3YARdBWbP1WKSQs,33.8264223,-118.1891186,"3768 Long Beach Blvd, Long Beach, CA 90807, USA",California Heights,(562) 304-1454,http://www.steelcraftlb.com/
Stir Crazy,,manual_review,none,Could not find handle automatically,ChIJ7WIEQcq5woAR0RM_28q5Kz0,34.0835568,-118.3418247,"6903 Melrose Ave, Los Angeles, CA 90038, USA",Melrose,(323) 433-4933,http://instagram.com/stircrazy.LA
Stuff I Eat,,manual_review,none,Could not find handle automatically,ChIJmRhHWAG3woARiXvgvI05iJo,33.9633419,-118.3515974,"114 N Market St, Inglewood, CA 90301, USA",Inglewood,(310) 671-0115,http://www.stuffieat.com/
Sunday Gravy,,manual_review,none,Could not find handle automatically,ChIJh4nD6y-3woARL7c-WEyafEc,33.9765284,-118.35862,"1122 Centinela Ave, Inglewood, CA 90302, USA",Inglewood,(424) 227-6500,http://www.eatsundaygravy.com/
Sunnin Lebanese Cafe,,manual_review,none,Could not find handle automatically,ChIJN0WJzYK7woARRbo3UQKTLh8,34.0506114,-118.4373075,"1776 Westwood Blvd, Los Angeles, CA 90024, USA",Westwood,(310) 475-3358,https://sunnin.com/
Surfas Culinary District,,manual_review,none,Could not find handle automatically,ChIJQ-Lg3IO5woARDDmecH931Yc,34.0402574,-118.3196537,"3225 W Washington Blvd, Los Angeles, CA 90018, USA",Arlington Heights,(310) 559-4770,http://www.surfasonline.com/
Sushi Ike,,manual_review,none,Could not find handle automatically,ChIJCdoAnUe_woARiuvfyHmW_MA,34.101958,-118.321816,"6051 Hollywood Blvd #105, Los Angeles, CA 90028, USA",Central LA,(323) 856-9972,https://www.sushiike.com/
Sushi n Matcha Sho,,manual_review,none,Could not find handle automatically,ChIJZVNvUDW_woARM1hwZfXjnJw,34.0837269,-118.3484092,"7275 Melrose Ave unit E, Los Angeles, CA 90046, USA",Fairfax,(310) 925-1421,https://sushishomelrose.com/
Sushi Sonagi,,manual_review,none,Could not find handle automatically,ChIJiQId4c21woAR7Na-g3TATdA,33.8735088,-118.3012037,"1425 Artesia Blvd UNIT 27, Gardena, CA 90248, USA",Gardena,,https://www.exploretock.com/sushi-sonagi-gardena/
Sushi Takeda,,manual_review,none,Could not find handle automatically,ChIJZZ-jjkjGwoARk89p24EJYwo,34.0503207,-118.2424499,"123 Astronaut Ellison S Onizuka St ste 307 3rd floor, Los Angeles, CA 90012, USA",Downtown Los Angeles,(213) 613-0083,
Sushi Tama,,manual_review,none,Could not find handle automatically,ChIJNyucS3m_woARUKtQB__4rpY,34.0759018,-118.3835589,"116 N Robertson Blvd, Los Angeles, CA 90048, USA",Central LA,(424) 249-3009,http://www.sushitama-la.com/
Sweet Rice,,manual_review,none,Could not find handle automatically,ChIJA1Tcvf21woAR1ZaqxOxjUWE,33.8882679,-118.3052257,"1630 W Redondo Beach Blvd #4, Gardena, CA 90247, USA",Gardena,(424) 344-2054,
Tacos Fenix (Fish & Shrimp),,manual_review,none,Could not find handle automatically,ChIJYblmQ3qS2IARnjZgt4i08d0,31.8638408,-116.6162712,"Av. Espinoza 451, Obrera, 22830 Ensenada, B.C., Mexico",Obrera,646 977 1191,https://www.instagram.com/tacosfenixmx
Tam's Noodle House,,manual_review,none,Could not find handle automatically,ChIJ3V6g2-zbwoAR1t9P_QrSF_E,34.1042118,-118.0899177,"120 N San Gabriel Blvd #J, San Gabriel, CA 91775, USA",San Gabriel,(626) 782-7666,https://tamsnoodlehouse.wixsite.com/home
Tamaler√≠a La Do√±a,,manual_review,none,Could not find handle automatically,ChIJ6Ssg7L3MwoARZTkRLVKpjk4,33.8960501,-118.1895042,"4818 E Compton Blvd, East Compton, CA 90221, USA",East Compton,(310) 635-4800,https://tamalerialadoa.shop/
Taormina Sicilian Cuisine,,manual_review,none,Could not find handle automatically,ChIJ5W-jcHVyAHwRaGm6iJsz26Y,21.2794304,-157.8305434,"227 Lewers St, Honolulu, HI 96815, USA",Waikiki,(808) 926-5050,http://taorminarestaurant.com/
Taqueria Frontera,,manual_review,none,Could not find handle automatically,ChIJq-wlGADHwoARfnCcqPOh9Jw,34.090923,-118.2237121,"700 Cypress Ave, Los Angeles, CA 90065, USA",Northeast Los Angeles,,
Taqueria Vista Hermosa,,manual_review,none,Could not find handle automatically,ChIJGyYzkgrIwoAR5zXwQ4j0tCM,34.0174262,-118.2781666,"3655 S Grand Ave C-5, Los Angeles, CA 90007, USA",South Los Angeles,(213) 741-1251,http://www.taqueriavistahermosa.com/
Taste of Tehran Restaurant,,manual_review,none,Could not find handle automatically,ChIJOVpDZ5y7woARXY_mVBj2V_A,34.0477204,-118.4352526,"1915 Westwood Blvd, Los Angeles, CA 90025, USA",West Los Angeles,(310) 470-0022,http://tasteoftehran.com/
TAVERNA at The Mar Vista,,manual_review,none,Could not find handle automatically,ChIJgUepbVy6woARRs_aeOlq2bM,34.0047016,-118.4322131,"12249 Venice Blvd., Los Angeles, CA 90066, USA",Mar Vista,(310) 751-6773,http://www.themarvista.com/
The Apple Pan,,manual_review,none,Could not find handle automatically,ChIJyWIAM727woARCh0VBNP7GsU,34.0406564,-118.4277627,"10801 W Pico Blvd, Los Angeles, CA 90064, USA",West Los Angeles,(310) 475-3585,http://www.theapplepan.com/
The Arthur J,,manual_review,none,Could not find handle automatically,ChIJxanJrOyzwoARK-SmTA4f2vM,33.8829479,-118.4100104,"903 Manhattan Ave, Manhattan Beach, CA 90266, USA",Manhattan Beach,(310) 878-9620,https://thearthurj.com/
The Bazaar by Jose Andres,,manual_review,none,Could not find handle automatically,ChIJ69zJpE65woARW1hTfn5h6qQ,34.0700602,-118.377199,"465 La Cienega Blvd, Los Angeles, CA 90048, USA",Central LA,(310) 246-5555,
The Beet Box Cafe,,manual_review,none,Could not find handle automatically,ChIJNzd-ddsUAHwR1825q6hd3dI,21.3951728,-157.7448942,"46 Hoolai St, Kailua, HI 96734, USA",Kailua,,http://www.thebeetboxcafe.com/
The Belasco,,manual_review,none,Could not find handle automatically,ChIJT359ZcnHwoARlzqycZrBhdc,34.0403336,-118.2593883,"1050 S Hill St, Los Angeles, CA 90015, USA",Downtown Los Angeles,(213) 531-0580,https://www.thebelasco.com/?utm_source=GMBlisting&utm_medium=organic
The Blue Hole Restaurant Belizean Caribbean Cuisine,,manual_review,none,Could not find handle automatically,ChIJy5qjlS21woARjQnLuU-0cac,33.9047089,-118.3261432,"14008 Crenshaw Blvd, Gardena, CA 90249, USA",Gardena,(424) 396-3228,https://blueholerestaurant.com/?utm_source=google
The Breakers Palm Beach,,manual_review,none,Could not find handle automatically,ChIJZcTxw5DW2IgREnhgYXc3igo,26.7147746,-80.0339842,"1 S County Rd, Palm Beach, FL 33480, USA",Palm Beach,(561) 655-6611,https://www.thebreakers.com/
The Brixton,,manual_review,none,Could not find handle automatically,ChIJez9qdxe7woARmfzhJtlXAlU,34.0248212,-118.4599269,"2827 Pico Blvd, Santa Monica, CA 90404, USA",Pico,(310) 449-4567,https://www.thebrixtonsm.com/
The Brothers Sushi Culver City,,manual_review,none,Could not find handle automatically,ChIJd7kHztK7woART3cidqv8Pdg,34.0255533,-118.3929493,"9240 Culver Blvd, Culver City, CA 90232, USA",Downtown,(310) 202-8890,http://thebrotherssushicc.com/
The Cheese Store of Beverly Hills,,manual_review,none,Could not find handle automatically,ChIJMd3gmQe8woAR9A6FRbhXHoo,34.068517,-118.4076325,"9705 S Santa Monica Blvd, Beverly Hills, CA 90210, USA",Beverly Hills,(310) 278-2855,http://cheesestore.com/
The Chori-Man,,manual_review,none,Could not find handle automatically,ChIJPRGMf9U33YARy1qrykl9h54,33.7230992,-118.2993395,"2309 S Alma St, San Pedro, CA 90731, USA",San Pedro,(424) 287-2414,https://www.thechoriman.com/
The Crawford Hotel,,manual_review,none,Could not find handle automatically,ChIJLzjzCcN4bIcR6Rns-LU8ylI,39.7529878,-104.9999544,"1701 Wynkoop St, Denver, CO 80202, USA",Union Station,(720) 460-3700,https://www.thecrawfordhotel.com/?utm_source=google-gbp&utm_medium=organic&utm_campaign=gbp
The Factory Kitchen,,manual_review,none,Could not find handle automatically,ChIJKdvOsiTGwoAROdFrQHvqplE,34.0389831,-118.2358783,"1300 Factory Pl, Los Angeles, CA 90013, USA",Downtown Los Angeles,(213) 996-6000,https://thefactorykitchen.com/
The Framing House Design,,manual_review,none,Could not find handle automatically,ChIJFeM81ArHwoAR9SNjAxInqOQ,34.0590709,-118.2379413,"670 N Spring St, Los Angeles, CA 90012, USA",Central LA,(213) 621-0295,
The Italian Deli Co.,,manual_review,none,Could not find handle automatically,ChIJDRr7EADDwoARWHde6ATKIQs,34.1692966,-118.1172659,"1615 E Washington Blvd, Pasadena, CA 91104, USA",Pasadena,(626) 345-5300,https://www.theitaliandeli.co/
The Living Room,,manual_review,none,Could not find handle automatically,ChIJS5wbZE-4woARBY_Nm0cG4aA,34.0314411,-118.3348976,"2636 Crenshaw Blvd, Los Angeles, CA 90016, USA",South Los Angeles,,
The MEETING SPOT,,manual_review,none,Could not find handle automatically,ChIJXwhVbgC3woARkXQPlQYCoPI,33.9465232,-118.3425141,"1231 District Dr Unit 2400A 2400A, Inglewood, CA 90303, USA",South Los Angeles,(855) 684-7768,https://themtgspot.com/
The Mulberry LA,,manual_review,none,Could not find handle automatically,ChIJvbXCwSC7woARm0oGgY3osgM,34.0438839,-118.4459658,"1800 Sawtelle Blvd, Los Angeles, CA 90025, USA",Sawtelle,(310) 598-5191,https://www.themulberrylosangeles.com/
The Original Rinaldi's Deli and Cafe,,manual_review,none,Could not find handle automatically,ChIJ78I4KCuxwoARHSa7NvgNKxY,33.9457331,-118.3933585,"6171 W Century Blvd #168, Los Angeles, CA 90045, USA",Westchester,(424) 351-8799,http://www.theoriginalrinaldis.com/
The Palms,,manual_review,none,Could not find handle automatically,ChIJpVYbKUy6woARHSurHU0hpGw,34.0179116,-118.4239573,"3450 Sawtelle Blvd, Los Angeles, CA 90066, USA",Mar Vista,(424) 645-5504,https://www.decron.com/apartments/ca/los-angeles/the-palms/?utm_source=GBP&utm_medium=organic
The Paramour Estate,,manual_review,none,Could not find handle automatically,ChIJt11h7zbHwoARqkvd5P19BzQ,34.0947731,-118.2717843,"1923 Micheltorena St, Los Angeles, CA 90039, USA",Silver Lake,(213) 999-0920,http://theparamour.com/
The Pig and The Lady,,manual_review,none,Could not find handle automatically,ChIJf_g4jXNuAHwRxwKtprB4Ojw,21.2824789,-157.7979348,"3650 Waialae Ave, Honolulu, HI 96816, USA",Kaimuki,(808) 585-8255,http://thepigandthelady.com/
The Rooster,,manual_review,none,Could not find handle automatically,ChIJNy9rZYa5woARVbJF2_h40Fk,34.0550178,-118.384037,"8809 W Pico Blvd, Los Angeles, CA 90035, USA",Pico-Robertson,(424) 278-1839,http://www.roostereats.com/
The Rose Venice,,manual_review,none,Could not find handle automatically,ChIJl54_As-6woARoSxAAI2CKdA,33.9962253,-118.4771078,"220 Rose Ave, Venice, CA 90291, USA",Venice,,https://www.therosevenice.la/
The Seafood Shop Gourmet & Charcuterie,,manual_review,none,Could not find handle automatically,ChIJlWqIZfWVwoARLDMVbOF_5Xo,34.1594814,-118.3715983,"4873 Lankershim Blvd, North Hollywood, CA 91601, USA",North Hollywood,(747) 203-8123,http://theseafoodshop.org/
"The Slate Hotel Denver Downtown, Tapestry by Hilton",,manual_review,none,Could not find handle automatically,ChIJH391Erx5bIcRYh2sCwbkgN4,39.7409074,-104.9947663,"1250 Welton St, Denver, CO 80204, USA",Central Business District,(303) 292-5000,https://www.hilton.com/en/hotels/denvrup-the-slate-hotel-denver-downtown/?SEO_id=GMB-AMER-UP-DENVRUP&y_source=1_Mjc3Mjg2MDgtNzE1LWxvY2F0aW9uLndlYnNpdGU%3D
The Way We Wore,,manual_review,none,Could not find handle automatically,ChIJ35eBeq1ZwokR1lTp8AlL6SU,34.0763825,-118.3651541,"8057 Beverly Blvd Suite 200, Los Angeles, CA 90048, USA",Central LA,(323) 937-0878,http://thewaywewore.com/
The Wolf's Tailor,,manual_review,none,Could not find handle automatically,ChIJgZlxHYt4bIcRbUoKhywj5CE,39.7728352,-105.011101,"4058 Tejon St, Denver, CO 80211, USA",Northwest,(720) 456-6705,https://thewolfstailor.com/
Tienda de Quesos y Vinos Los Globos,,manual_review,none,Could not find handle automatically,ChIJ3_dG2TTs2IARMYSTTDq0JSA,31.972166,-116.6564304,"M√©xico 3 s/n, 22766 Villa de Ju√°rez, B.C., Mexico",Villa de Ju√°rez,646 155 3158,https://www.cremerialosglobos.com/sucursales-y-contacto
Tilda,,manual_review,none,Could not find handle automatically,ChIJTb-MURDHwoARtgFst_c5ul8,34.0802388,-118.2555077,"1507 Echo Park Ave, Los Angeles, CA 90026, USA",Echo Park,(213) 995-6090,http://tildawine.com/
Tito‚Äôs Tacos,,manual_review,none,Could not find handle automatically,ChIJD7h1FD-6woARYzcOU-WVg3Y,34.0081173,-118.4144858,"11222 Washington Pl, Culver City, CA 90230, USA",Clarkdale,(310) 391-5780,http://www.titostacos.com/
Toranj Restaurant,,manual_review,none,Could not find handle automatically,ChIJNdnGdTO9woAR1Yj8a8erE3A,34.0602431,-118.4429469,"10861 Lindbrook Dr, Los Angeles, CA 90024, USA",Westwood,(310) 824-8188,http://toranjrestaurant.com/
TOSHI SUSHI,,manual_review,none,Could not find handle automatically,ChIJRZkF0nu1woAReSjHSEnJq9U,33.8892279,-118.3078947,"1725 W Redondo Beach Blvd, Gardena, CA 90247, USA",Gardena,(310) 217-9700,
Tripp Burgers,,manual_review,none,Could not find handle automatically,ChIJuT31cKO7woARgoM27ir-H60,34.020256,-118.4226837,"3458 S Sepulveda Blvd, Los Angeles, CA 90034, USA",Westside Village,,http://trippburgers.com/
Twelves,,manual_review,none,Could not find handle automatically,ChIJo06AgcYx3YARjEmh0avGXmA,33.7751792,-118.1826139,"746 E 7th St, Long Beach, CA 90813, USA",East Village,(562) 393-6880,http://www.twelveslb.com/
Two Homm√©s,,manual_review,none,Could not find handle automatically,ChIJE2iu8PyxwoAR0xugqezXqWQ,33.9747532,-118.3573121,"902 N La Brea Ave, Inglewood, CA 90302, USA",Inglewood,(424) 577-5242,http://twohommes.com/
UCLA Mathias Botanical Garden,,manual_review,none,Could not find handle automatically,ChIJfwjI14C8woARd8bd-g1DUCk,34.0657155,-118.4410962,"707 Tiverton Dr, Los Angeles, CA 90095, USA",Westwood,(310) 825-8260,https://www.botgard.ucla.edu/
UKA,,manual_review,none,Could not find handle automatically,ChIJFyxQKCO_woARf6OMJ9ZWJNg,34.1017937,-118.3392247,"Ovation Hollywood, JAPAN HOUSE, 6801 Hollywood Blvd Level 5, Los Angeles, CA 90028, USA",Central LA,(213) 808-2021,https://www.exploretock.com/uka/?utm_source=google_business_profile
Uncle Bill's Pancake House,,manual_review,none,Could not find handle automatically,ChIJd8iiiuuzwoARB1aI8rL4q6M,33.8864747,-118.4106412,"1305 Highland Ave, Manhattan Beach, CA 90266, USA",Manhattan Beach,(310) 545-5177,http://www.unclebills.net/
Uncle Mac‚Äôs Kitchen,,manual_review,none,Could not find handle automatically,ChIJyddTd6a1woARFMNxoxr1ilw,33.8891502,-118.3088542,"15490 S Western Ave, Gardena, CA 90249, USA",Gardena,(310) 817-4401,https://unclemacskitchen.com/?utm_source=google
Union Restaurant,,manual_review,none,Could not find handle automatically,ChIJ6bJimnHDwoARLVTrXTHBoVY,34.1469979,-118.1496377,"37 Union St, Pasadena, CA 91103, USA",Old Pasadena,(626) 795-5841,http://www.unionpasadena.com/
UOVO | Pasadena,,manual_review,none,Could not find handle automatically,ChIJdXI9qFXDwoAR-xXkq3R8390,34.1430716,-118.1319269,"146 S Lake Ave #103, Pasadena, CA 91101, USA",Pasadena,(626) 556-7948,http://uovo.la/
US Thai Cafe,,manual_review,none,Could not find handle automatically,ChIJTy3FFWuHa4cRDIbUxVpcLF0,39.7529385,-105.0541467,"5228 W 25th Ave, Edgewater, CO 80214, USA",Edgewater,(303) 233-3345,https://mymenuweb.com/us/restaurants/1192509/?utm_source=google_profile&utm_medium=google_profile&utm_campaign=admin
Valle Omakase by Chef Quindere,,manual_review,none,Could not find handle automatically,ChIJSzvhabr72IAROHQM_HROGE8,32.0995358,-116.6228473,"Camino de los Ranchos Parcela #7, Ejido El Porvenir, 22750 Francisco Zarco, B.C., Mexico",Ejido El Porvenir,646 145 2967,http://valleomakase.com/
Vendome Wines & Spirits,,manual_review,none,Could not find handle automatically,ChIJy9p8wSS-woARIShtakb2gFY,34.1519662,-118.3618906,"10600 Riverside Dr, North Hollywood, CA 91602, USA",North Hollywood,(818) 766-9593,https://www.vendometl.com/
Veronica's Kitchen - The Fufuland,,manual_review,none,Could not find handle automatically,ChIJR414OBm3woARKxw-Qh-b9S4,33.9613568,-118.3650917,"524 W Manchester Blvd, Inglewood, CA 90301, USA",Inglewood,(310) 673-4890,https://veronicaskitchen0732.s4shops.com/
Wagyu Butcher Japanese BBQ,,manual_review,none,Could not find handle automatically,ChIJXYKAbN-1woAREE2yYfb5IdM,33.8725744,-118.3164209,"2104 Artesia Blvd, Torrance, CA 90504, USA",Northeast Torrance,(310) 483-1530,http://www.exploretock.com/wagyu-butcher-torrance
Wah Sing Dim Sum,,manual_review,none,Could not find handle automatically,ChIJY6r-Az7bwoARaSUOvs0RMS0,34.1022585,-118.0911881,"135 S San Gabriel Blvd, San Gabriel, CA 91776, USA",San Gabriel,(626) 872-0900,
West 62nd Street,,manual_review,none,Could not find handle automatically,ChIJmwZebdi3woAR9gEwOBs_Q6c,33.9832568,-118.3065756,"W 62nd St, Los Angeles, CA, USA",South Los Angeles,,
Whole Foods Market,,manual_review,none,Could not find handle automatically,ChIJk2wKz7XHwoARxvQQWiJGyok,34.0461171,-118.25748,"788 S Grand Ave, Los Angeles, CA 90017, USA",Downtown Los Angeles,(213) 873-4745,https://www.wholefoodsmarket.com/stores/downtownlosangeles?utm_source=google&utm_medium=organic&utm_campaign=listings
Wilson Harding Driving Range,,manual_review,none,Could not find handle automatically,ChIJsbHebaHBwoARXpY-64Z2ffc,34.1442575,-118.2900333,"Griffith Park Dr, Los Angeles, CA 90027, USA",Griffith Park,(323) 663-2555,https://www.golf.lacity.org/
Xiang La Hui,,manual_review,none,Could not find handle automatically,ChIJd20UDVbFwoARr4QJI_orW0Q,34.0921192,-118.1336712,"621 W Main St, Alhambra, CA 91801, USA",Alhambra,(626) 703-4165,https://www.laxianglahui.com/
XUNTOS,,manual_review,none,Could not find handle automatically,ChIJkaE_wR-lwoARJmJ-YudPXTE,34.0174391,-118.4937028,"516 Santa Monica Blvd, Santa Monica, CA 90401, USA",Downtown,(424) 744-8727,http://www.barxuntos.com/
Yang's Kitchen,,manual_review,none,Could not find handle automatically,ChIJBczrbxHFwoARl0fbvAOnGME,34.0943735,-118.1281888,"112 W Main St, Alhambra, CA 91801, USA",Alhambra,(626) 281-1035,http://yangskitchenla.com/
Yongsusan Restaurant,,manual_review,none,Could not find handle automatically,ChIJbUuYUYLHwoARCMxYI_5enJs,34.053888,-118.2913861,"950 S Vermont Ave, Los Angeles, CA 90006, USA",Koreatown,(213) 388-3042,http://www.yongsusanla.com/
Yunomi Handroll,,manual_review,none,Could not find handle automatically,ChIJSXug65vHwoARL7woRsKWBV0,34.0457256,-118.2359452,"806 E 3rd St #100, Los Angeles, CA 90013, USA",Downtown Los Angeles,(213) 988-7076,http://www.yunomihandroll.com/
Âá±ÊÇ¶ Grand Harbor,,manual_review,none,Could not find handle automatically,ChIJI-PkmvvawoARlcLnArj4Jm0,34.1040386,-118.0755039,"5733 Rosemead Blvd, Temple City, CA 91780, USA",Temple City,(626) 280-2998,
ÊàêÈÉΩÊò†Ë±° Chengdu Impression,,manual_review,none,Could not find handle automatically,ChIJ-Ve9tMLbwoARjW7Le7ZsEjY,34.1405688,-118.0304209,"21 E Huntington Dr, Arcadia, CA 91006, USA",Arcadia,(626) 462-9999,https://www.chengduimpressionla.com/
Ê±üÊà∏ÂâçÈÆ® „êÇÊâá Sushi Kisen,,manual_review,none,Could not find handle automatically,ChIJAxmyMojbwoARQDN6CvMHYCo,34.1272921,-118.0542398,"1108 S Baldwin Ave B6, Arcadia, CA 91007, USA",Arcadia,(626) 623-6033,http://sushikisen.com/